hotelid,hotelname,hotelstars,lat,lon,address
1,Iberostar Playa de Muro,4.0,39.8070456,3.1174558,"Av. de s'Albufera, 8, 07458 Playa de Muro, Mallorca, Illes Balears, Spain"
2,Prinsotel La Pineda,4.0,39.7145288,3.4579996,"Carrer Castellet, 72, 07590 Cala Rajada, Illes Balears, Spain"
3,BlueSea Gran Playa,3.0,39.5775355,3.3744403,"Calle Ses, Plaça de la Estepes, 5, 07560 Sa Coma, Illes Balears, Spain"
4,Grupotel Gran Vista & Spa,4.0,39.7660286,3.1463834,"Ctra Artá - Pt. Alcudia, 68, 07458 Can Picafort, Illes Balears, Spain"
5,Playa Esperanza Hotel,4.0,39.803686,3.1194,"Av. de s'Albufera, 4, 07458 Alcudia, Illes Balears, Spain"
6,Hotel Cala d'Or,4.0,39.3714132,3.2293412,"Av. de Bèlgica, 49, 07660 Cala D'or, Illes Balears, Spain"
7,Valentin Paguera,3.0,39.5390399,2.453303,"Carrer Mallorca, 1, 07160 Peguera, Illes Balears, Spain"
8,Hotel Vibra Beverly Playa,4.0,39.534837,2.4586975,"Carrer d'Isaac Albéniz, 3, 07160 Calvià, Illes Balears, Spain"
9,Bonsol Hotel Resort & Spa,5.0,39.54058070000001,2.592458,"Paseo de Illetas, 30, 07181 Cas Català, Illes Balears, Spain"
10,Bon Aire Apartments,1.0,39.581754,2.6474675,"Bons Aires, Nord, Palma, Illes Balears, Spain"
11,Hotel Carabela,3.0,39.5374944,2.4491264,"Bulevar de Peguera, 44, 07160 Peguera, Illes Balears, Spain"
12,Alua Gran Camp de Mar,4.0,39.5382591,2.4214394,"Av. Gabriel Covas Alemany, 2, 07160 Camp de Mar, Illes Balears, Spain"
13,Fergus Club Europa,4.0,39.5391498,2.4362841,"Carrer de La Savina, 16, 07160 Peguera, Illes Balears, Spain"
14,Hilton Mallorca Galatzo,4.0,39.5286429,2.4733053,"Ctra. Andratx, Km 20, 07160 Costa de la Calma, Illes Balears, Spain"
15,Bahia del Sol,4.0,39.5125395,2.4772259,"Avinguda del Rei Jaume I, 74, 07180 Santa Ponça, Illes Balears, Spain"
16,Hotel y Apartamentos Casablanca,3.0,39.5132668,2.4829817,"Carrer Gran Via Rei Sanxo, 4, 07183 Santa Ponça, Illes Balears, Spain"
17,Gaya,3.0,24.7913957,85.0002336,"Gaya, Bihar, India"
18,Holiday Center,3.0,39.3135808,3.1207987,"Calle Fustera, 19 ( Cap Des Moro, 07690 Cap des Moró, Illes Balears, Spain"
19,Grupotel Nilo & Spa,4.0,39.5389221,2.4496664,"Carrer de les Malgrats, 9, 07160 Peguera, Illes Balears, Spain"
20,allsun Hotel Paguera Park,4.0,39.540743,2.450142,"Carrer de Palmira, 17, 07160 Peguera, Illes Balears, Spain"
21,H10 Blue Mar,4.0,39.5375933,2.4244447,"Camí Salinar, 8, 07160 Andratx, Illes Balears, Spain"
22,Globales Pionero,4.0,39.5174423,2.484279,"Via Puig des Teix, 5, 07183 Santa Ponça, Illes Balears, Spain"
23,Meliá Palma Marina,4.0,39.564838,2.62749,"Av. de Gabriel Roca, 29, Ponent, 07014 Palma, Illes Balears, Spain"
24,Club Santa Ponsa ,3.0,39.5207858,2.4750411,"Carrer de Nunyo Sanç, 14, 07180 Santa Ponça, Illes Balears, Spain"
25,BQ Bulevar Peguera Hotel,4.0,39.5400215,2.4469566,"Carrer Eucaliptus, 15, 07160 Peguera, Illes Balears, Spain"
26,Roc Illetas Hotel,4.0,39.5385648,2.5923223,"Passeig Illetes, 62, 07181 ses Illetes, Illes Balears, Spain"
27,Iberostar Selection Jardín del Sol Suites,4.0,39.51969769999999,2.4691597,"Huguet de's Far, s/n, 07180 Calviá, Illes Balears, Spain"
28,Globales Santa Ponsa Park,4.0,39.5167031,2.4829109,"Carrer Puig d'es Teix, 3, 07180 Santa Ponça, Illes Balears, Spain"
29,HSM Solivera Hotel,4.0,39.54,2.4472222,"Carrer Eucaliptus, 16, 07160 Peguera, Illes Balears, Spain"
30,Hotel Son Caliu Spa Oasis,4.0,39.5262382,2.5442926,"Av. son Caliu, 8, 07181 Palmanova, Illes Balears, Spain"
31,Tora,3.0,41.81054,1.4036179,"25750 Torà, Lleida, Spain"
32,Venecia,3.0,39.6952629,3.0175712,"Majorca, Balearic Islands, Spain"
33,Secrets Mallorca Villamil Resort & Spa,5.0,39.537534,2.453105,"Bulevar de Peguera, 66, 07160 Peguera, Illes Balears, Spain"
34,Villa Columbus,2.0,39.5396636,2.4508925,"Carrer dels Pins, 13, 07160 Peguera, Illes Balears, Spain"
35,Hostal Residencia Sutimar,3.0,39.5389125,2.4505144,"Carrer de Palmira, 9, 07160 Peguera, Illes Balears, Spain"
36,Mar Hotels Paguera & Spa and Apartments,4.0,39.53739600000001,2.4575657,"Carrer de les Gavines, 19, 07160 Peguera, Illes Balears, Spain"
37,Hostal Villa Rosa,3.0,39.5395487,2.4492856,"Calle Malgrat, 11, 07160 Peguera, Illes Balears, Spain"
38,Hotel Bonanza Park,4.0,39.5411791,2.5932097,"Passeig Illetes, 26, 07181 ses Illetes, Illes Balears, Spain"
39,Hotel Palace Bonanza Playa & SPA,4.0,39.5410106,2.5937453,"Passeig Illetes, 21, 07181 ses Illetes, Illes Balears, Spain"
40,Ponent Apartamentos,3.0,39.5361111,2.4552778,"Carrer Sebel·lí, 4, 07160 Peguera, Illes Balears, Spain"
41,Ponent Mar,4.0,39.52494050000001,2.5442886,"Carrer Marquès de la Torre, 9, 07181 Palmanova, Illes Balears, Spain"
42,Sentido Fido Punta del Mar,4.0,39.5193861,2.467246,"Carrer Huguet des Far, 11, 07180 Santa Ponça, Illes Balears, Spain"
43,Flor Los Almendros Apartments,2.0,39.5366398,2.4476353,"Bulevar de Peguera, 36, 07160 Peguera, Illes Balears, Spain"
44,Valentin Reina Paguera Hotel,4.0,39.5390399,2.453303,"Carrer Mallorca, 1, 07160 Peguera, Illes Balears, Spain"
45,Globales Playa Santa Ponsa,3.0,39.51642349999999,2.4832211,"Via Puig des Teix, 4, 07183 Santa Ponça, Illes Balears, Spain"
46,Plazamar Serenity Resort ,3.0,39.512761,2.4843056,"Avinguda del Golf, 4, 07180 Santa Ponsa, Illes Balears, Spain"
47,Be Live Experience Costa Palma,4.0,39.5528057,2.6052072,"Carrer Guillem Díaz-Plaja, 2, Ponent, 07015 Palma, Illes Balears, Spain"
48,La Pérgola Aparthotel,4.0,39.5486768,2.3819594,"Avinguda s'Almudaina, 16, 07157 Port d'Andratx, Illes Balears, Spain"
49,HSM Linda Playa,3.0,39.5384521,2.4519897,"Carrer dels Tarongers, 2, 07160 Peguera, Illes Balears, Spain"
50,Los Tilos Aparthotel,2.0,39.539132,2.4514978,"Plaza Matilde Waring, 3, 07160 Peguera, Illes Balears, Spain"
51,Hotel Palmira Paguera & Suites,4.0,39.5393768,2.4506124,"Carrer de Palmira, 10, 07160 Peguera, Illes Balears, Spain"
52,BQ Paguera Boutique Hotel ,4.0,39.5400494,2.4501057,"Carrer de Palmira, 29, 07160 Peguera, Illes Balears, Spain"
53,Universal Aparthotel Don Camilo,4.0,39.57699460000001,2.355268,"Carrer Cala es Conills, 5, 07159 Sant Elm, Illes Balears, Spain"
54,Sol House The Studio - Calvia Beach,4.0,39.50789100000001,2.533199,"Carrer Blanc, 2, 07181 Magaluf, Illes Balears, Spain"
55,Tomir Portals Suites,4.0,39.5345708,2.5675996,"Carrer Miguel de Cervantes, 4, 07181 Portals Nous, Illes Balears, Spain"
56,Hotel Bahia,4.0,39.536663,2.4579336,"Bulevar de Peguera, 81, 07160 Peguera, Illes Balears, Spain"
57,Bon Repos,2.0,39.5134668,2.4819768,"Carrer Gran Via Rei Sanxo, 8, 07180 Calvia (Mallorca, Illes Balears, Spain"
58,Zafiro Palmanova,4.0,39.5140929,2.5355608,"Av. de Cas Saboners, 5, 07181 Palmanova, Illes Balears, Spain"
59,Sheraton Mallorca Arabella Golf Hotel,5.0,39.5866644,2.5993321,"Carrer Vinagrella, Ponent, 07013 Son Vida, Illes Balears, Spain"
60,Brismar,3.0,39.5438491,2.3867458,"Av. Almirante Riera Alemany, 4a, 07157 Andratx, Illes Balears, Spain"
61,Globales Cala Viñas,4.0,39.4963776,2.5355949,"Carrer de les Sirenes, 15, 07181 Cala Vinyes, Illes Balears, Spain"
62,Cupido Boutique Hotel,3.0,39.537791,2.448459,"Carrer Eucaliptus, 5, 07160 Peguera, Illes Balears, Spain"
63,Paguera Beach,4.0,39.5373108,2.4521777,"Bulevar de Peguera, 64, bj, 07160 Peguera, Illes Balears, Spain"
64,Maria Eugenia Pension,5.0,39.6952629,3.0175712,"Majorca, Balearic Islands, Spain"
65,Hotel de Mar Gran Melia,5.0,39.543886,2.596245,"Passeig Illetes, 7, 07181 ses Illetes, Illes Balears, Spain"
66,Flor Los Almendros Hotel,3.0,39.5366398,2.4476353,"Bulevar de Peguera, 36, 07160 Peguera, Illes Balears, Spain"
67,Gran Meliá Victoria,5.0,39.5635716,2.6267103,"Avinguda de Joan Miró, 21, Ponent, 07014 Palma, Illes Balears, Spain"
68,Miranda,2.0,39.6952629,3.0175712,"Majorca, Balearic Islands, Spain"
69,Hotel Palmira Paradise & Suites,4.0,39.5382199,2.4590624,"Carrer de les Gavines, 24, 07160 Peguera, Illes Balears, Spain"
70,allsun Hotel Bella Paguera,5.0,39.5351785,2.4605818,"Carrer José Maria Pemán, 15, 07160 Peguera, Illes Balears, Spain"
71,allsun Hotel Cormoran,5.0,39.53912,2.4536035,"Carrer Putxet, 2, 07160 Peguera, Illes Balears, Spain"
72,Sol Wave House All Suites,4.0,39.6952629,3.0175712,"Majorca, Balearic Islands, Spain"
73,Zafiro Rey Don Jaime,4.0,39.5178441,2.4837898,"Carrer Gran Via Puig Major, 4, 07180 Santa Ponça, Illes Balears, Spain"
74,Grupotel Aguait Resort & Spa,4.0,39.6952969,3.4547174,"Av. dels Pins, 61, 07590 Cala Rajada, Illes Balears, Spain"
75,Prinsotel Alba,4.0,39.3741879,3.2344748,"Carrer de sa Conillera, s/n, 07660 Cala D'or, Illes Balears, Spain"
76,Alcina,1.0,39.6952629,3.0175712,"Majorca, Balearic Islands, Spain"
77,Alondra,3.0,39.6952629,3.0175712,"Majorca, Balearic Islands, Spain"
78,Amoros,3.0,39.7102558,3.4584558,"Carrer de ses Llegitimes, 37, 07590 Cala Rajada, Illes Balears, Spain"
79,Globales América,4.0,39.4589994,3.279536,"Carrer de Cala Domingos, s/n, 07689 Cales de Mallorca, Illes Balears, Spain"
80,Gavimar Ariel,3.0,39.375576,3.2305391,"Carrer d'Ariel, 1, 07660 Cala D'or, Illes Balears, Spain"
81,Protur Atalaya Apartamentos,3.0,39.600578,3.3829411,"Carrer Sol Naixent, s/n, 07650 Cala Millor, Illes Balears, Spain"
82,allsun Hotel Bahia del Este,5.0,39.5951669,3.382184,"Avinguda Llevant, 4, 07560 Cala Millor, Illes Balears, Spain"
83,Hotel Bella Mar,3.0,39.7111111,3.4591667,"Carrer de Méndez Núñez, 11, 07590 Cala Rajada, Illes Balears, Spain"
84,Bella Playa Hotel & Spa,4.0,39.7189197,3.4574506,"Avinguda Cala Agulla, 121, 07590 Cala Rajada, Illes Balears, Spain"
85,Hotel Cala Gat,4.0,39.7146419,3.4692765,"Carretera del faro, 5, 07590 Cala Rajada, Illes Balears, Spain"
86,Guya Wave Hotel,3.0,39.714807,3.459883800000001,"Avinguda Cala Agulla, 65, 07590 Cala Rajada, Illes Balears, Spain"
87,THB Cala Lliteras,4.0,39.7193857,3.4629047,"Carrer de na Lliteres, 9, 07590 Cala Rajada, Illes Balears, Spain"
88,Club Hotel Cala Ratjada,3.0,39.7100398,3.4566911,"07590 Cala Ratjada, Balearic Islands, Spain"
89,Baviera,3.0,48.1319124,11.5709058,"Bavaria, Germany"
90,Capricho,3.0,39.5703904,2.6485507,"Carrer de Sant Nicolau, 5, Centre, 07001 Palma, Illes Balears, Spain"
91,Singular Cala Ratjada,2.0,39.7129244,3.4639816,"Carrer de Méndez Núñez, 61, 07590 Cala Rajada, Illes Balears, Spain"
92,Clumba,3.0,39.7063607,3.4570787,"Carrer Nereidas, 2, 07590 Capdepera, Illes Balears, Spain"
93,Diamant Hotels,3.0,39.6952629,3.0175712,"Majorca, Balearic Islands, Spain"
94,THB Dos Playas,3.0,39.7087273,3.4558654,"Carrer Mestral, 2, 07590 Cala Rajada, Illes Balears, Spain"
95,Paradise Residencial,3.0,39.7184606,3.4604655,"Avinguda Cala Agulla, 106, 07590 Cala Rajada, Illes Balears, Spain"
96,Hostal Gami                   ,1.0,39.7107135,3.4596325,"Carrer Bustamante, 19, 07590 Cala Rajada, Illes Balears, Spain"
97,THB Guya Playa,4.0,39.7192538,3.4598856,"Carrer des Secret, s/n, 07590 Cala Rajada, Illes Balears, Spain"
98,allsun Hotel Lux de Mar,4.0,39.7195278,3.4584722,"Avinguda Cala Agulla, 120, 07590 Cala Agulla, Illes Balears, Spain"
99,Mar Azul Pur Estil Hotel & Spa,4.0,39.7195443,3.4576243,"Carrer de sa Regana Blava, s/n, 07590 Cala Rajada, Illes Balears, Spain"
100,Bell Port,3.0,39.7168013,3.460051,"Avinguda Cala Agulla, 83, 07590 Cala Rajada, Illes Balears, Spain"
101,Parque Nereida Suites Hotel,3.0,39.7193603,3.4618763,"Avenida Cala Lliteras, 4, 07590 Cala Rajada, Illes Balears, Spain"
102,HSM Regana,4.0,39.7194235,3.4579545,"Avinguda Cala Agulla, s/n, 07590 Cala Rajada, Illes Balears, Spain"
103,Quijote Park,3.0,39.6952629,3.0175712,"Majorca, Balearic Islands, Spain"
104,Marbel,2.0,39.6952629,3.0175712,"Majorca, Balearic Islands, Spain"
105,Hotel & Spa S'Entrador Playa ,4.0,39.7191573,3.4565795,"Avenida de, Avinguda Cala Agulla, 123, 07590 Cala Rajada, Illes Balears, Spain"
106,Serrano Palace,5.0,39.7064786,3.4561339,"Playa de Son Moll s/n, 07590 Cala Rajada, Illes Balears, Spain"
107,Protur Turó Pins Hotel,4.0,39.7178297,3.4636657,"Carrer des Clot Gran, S/N, 07590 Cala Rajada, Illes Balears, Spain"
108,Chevy Hotel & Suites,3.0,39.7132186,3.4650137,"Carrer Reis Catòlics, 11, 07590 Cala Rajada, Illes Balears, Spain"
109,Vistasol,2.0,39.5108859,2.5371445,"Carrer Alt, 5, 07181 Magaluf, Illes Balears, Spain"
110,D-H Anba Romani Hotel,3.0,39.599036,3.3841003,"Avinguda de Cristòfol Colom, 21, 07530 Sant Llorenç des Cardassar, Illes Balears, Spain"
111,Hipotels Bahía Grande,4.0,39.5873943,3.3841451,"Carrer Castell, 1, 07560 Sant Llorenç des Cardassar, Illes Balears, Spain"
112,Biniamar,3.0,39.7308251,2.8717393,"07369 Biniamar, Balearic Islands, Spain"
113,allsun Hotel Borneo,5.0,39.5901252,3.3841577,"Carrer de sa Coma de Bolengues, 41, 07810 Cala Millor, Illes Balears, Spain"
114,Hipotels Cala Millor Park,4.0,39.5939388,3.3817341,"Carrer Estanyol, 1, 07560 Cala Millor, Illes Balears, Spain"
115,Marins Beach Club,4.0,39.5924583,3.3818475,"Carrer Estanyol, 7, 07560 Cala Millor, Illes Balears, Spain"
116,CM Castell de Mar,4.0,39.59625310000001,3.3831475,"Carrer Bonança, 1, 07560 Cala Millor, Illes Balears, Spain"
117,Aparthotel Ciudad Laurel,3.0,39.6082879,3.3837003,"Avda. Beat, Av. Ramon Llull, 53, 07560 Cala Millor, Illes Balears, Spain"
118,Hipotels Don Juan,3.0,39.6002769,3.3844145,"Paseo Joan Llinas s/n, 07560 Cala Millor, Illes Balears, Spain"
119,Hipotels Dunas Cala Millor,4.0,39.5884679,3.3842317,"Av. sa Coma, 47, 07560 Sant Llorenç des Cardassar, Illes Balears, Spain"
120,Hipotels Flamenco,4.0,39.5923991,3.3836543,"Av. sa Coma, 13, 07560 Sant Llorenç des Cardassar, Illes Balears, Spain"
121,Hotel Girasol ,4.0,39.5985772,3.3823189,"Carrer Dofí, 8, 07560 Cala Millor, Illes Balears, Spain"
122,Kyrat Amàrac,4.0,39.6005788,3.3848001,"Carrer de la Vinya del Mar, 1, 07560 Son Servera, Illes Balears, Spain"
123,Hipotels Hipocampo,4.0,39.59694470000001,3.3835696,"C/ Bonanza, 4, 07560 Cala Millor, Illes Balears, Spain"
124,Hipotels Hipocampo Playa,4.0,39.5892652,3.3842265,"Av. sa Coma, 45, 07560 Cala Millor, Illes Balears, Spain"
125,BlueSea Cala Millor,3.0,39.5991954,3.3826756,"Carrer Caravel·les, 4, 07560 Cala Millor, Illes Balears, Spain"
126,Hoteles & Apartamentos La Santa Maria,3.0,39.59660299999999,3.3797942,"Av. del Bon Temps, 31, 07560 Sant Llorenç des Cardassar, Illes Balears, Spain"
127,Hotel Marins Playa,4.0,39.6075744,3.3878741,"Carrer na Llambies, 41, 07560 Cala Millor, Illes Balears, Spain"
128,Hipotels Mercedes,3.0,39.5939361,3.3831165,"Av. sa Coma, 1, 07560 Cala Millor, Illes Balears, Spain"
129,R2 Cala Millor Beach Apartments,3.0,39.6005729,3.3845277,"Carrer Sol Naixent, 3, 07560 Cala Millor, Illes Balears, Spain"
130,Hotel Ilusion Moreyo,1.0,39.6128529,3.3909982,"Passeig Maritim de Cala Bona, 8, 07559 Son Servera, Illes Balears, Spain"
131,Hotel Apartamentos Morito,3.0,39.5966458,3.3833965,"Carrer Bonança, 2, 07560 Sant Llorenç des Cardassar, Illes Balears, Spain"
132,CM Playa del Moro,4.0,39.597937,3.3837231,"Carrer Alosa, 2, 07560 Cala Millor, Illes Balears, Spain"
133,Sabina Playa,4.0,39.6064133,3.3878893,"Carrer des Rafal, 4, 07560 Cala Millor, Illes Balears, Spain"
134,Hipotels Said,4.0,39.5970185,3.3812261,"Av. del Bon Temps, 23, 07560 Cala Millor, Illes Balears, Spain"
135,allsun Hotel Sumba,5.0,39.5908294,3.3838899,"Av. sa Coma, 41, 43, 07560 Cala Millor, Illes Balears, Spain"
136,Ilusion Vista Blava,3.0,39.60361109999999,3.3825,"Carrer de ses Planes, 8, 07560 Cala Millor, Illes Balears, Spain"
137,Voramar,3.0,39.5506952,2.5982705,"Avinguda de Joan Miró, Ponent, 07015 Palma, Illes Balears, Spain"
138,Inturotel Cala Azul,3.0,39.377642,3.237479,"Carrer Caló des Corral, s/n, 07660 Cala D'or, Illes Balears, Spain"
139,Blue Sea Club Martha´s Resort,4.0,39.363387,3.2278082,"Carrer d'es Parc de la Mar, 6, 07660 Cala D'or, Illes Balears, Spain"
140,Inturotel Esmeralda Park,3.0,39.377642,3.237479,"Carrer Caló des Corral, s/n, 07660 Cala D'or, Illes Balears, Spain"
141,Gavimar La Mirada Club Resort,3.0,39.3646531,3.2275376,"Av. d'es Fortí, 18, 07660 Cala D'or, Illes Balears, Spain"
142,Barceló Illetas Albatros,4.0,39.5425294,2.5948868,"Passeig Illetes, 15, 07181 ses Illetes, Illes Balears, Spain"
143,Cupidor,3.0,39.5385046,2.4536008,"Carrer des Capdellà, 4, 07160 Peguera, Illes Balears, Spain"
144,Hotel Morlans,5.0,39.5372298,2.4562708,"Carrer de les Gavines, 6, 07160 Peguera, Illes Balears, Spain"
145,Hotel Diamante,2.0,39.5386099,2.4508326,"Carrer de Palmira, 4, 07160 Peguera, Illes Balears, Spain"
146,FERGUS Style Cala Blanca Suites,5.0,39.5223846,2.4695608,"Carrer Huguet des Far, 27, 07180 Santa Ponça, Illes Balears, Spain"
147,Hostal Neptuno,3.0,39.537482,2.448092,"Carrer Roser, 2, 07160 Peguera, Illes Balears, Spain"
148,Be Live Adults Only Marivent,4.0,39.5526809,2.6066312,"Carrer Gavina, 9, Ponent, 07015 Palma, Illes Balears, Spain"
149,FERGUS Style Tobago,5.0,39.5122369,2.5408446,"Carrer Martín Ros García, 1, 07181 Palmanova, Illes Balears, Spain"
150,Villa Cati,2.0,39.5390474,2.4508205,"Carrer de Palmira, 8, 07160 Peguera, Illes Balears, Spain"
151,JS Yate,4.0,39.7663198,3.151777,"Via França, 18, 07458 Can Picafort, Illes Balears, Spain"
152,Hotel Morlans Garden,3.0,39.5372298,2.4562708,"Carrer de les Gavines, 6, 07160 Peguera, Illes Balears, Spain"
153,allsun Hotel Paguera ,4.0,39.53964819999999,2.4468177,"07160 Peguera, Balearic Islands, Spain"
154,Sol Palmanova,4.0,39.516224,2.535141,"Carrer dels Pinzons, 8, 07181 Palmanova, Illes Balears, Spain"
155,Sol Guadalupe,4.0,39.506208,2.530805,"Camí Porrassa, s/n, 07181 Magaluf, Illes Balears, Spain"
156,Grupotel Acapulco Playa,4.0,39.52182,2.739329,"Carrer de la Costa Brava, 2, Platja de Palma, 07610 Palma, Illes Balears, Spain"
157,Indico Rock,4.0,39.509256,2.7551731,"Carrer Antas de Ullà, 14, Platja de Palma, 07610 Palma, Illes Balears, Spain"
158,HM Balanguera Beach,4.0,39.5262295,2.7360159,"Carrer de Marbella, 35, Platja de Palma, 07610 Palma, Illes Balears, Spain"
159,BQ Hotel Amfora Beach Hotel,4.0,39.5368953,2.7146993,"Carrer del Volantí, 9, Platja de Palma, 07610 Palma, Illes Balears, Spain"
160,Hotel BQ Apolo,4.0,39.5359179,2.7113458,"Carrer de Miquel Massutí, 28, Platja de Palma, 07610 Palma, Illes Balears, Spain"
161,Hotel Aya,4.0,39.5108308,2.7494539,"Carretera de l'Arenal, 60, Platja de Palma, 07600 Playa de Palma, Illes Balears, Spain"
162,HM Ayron Park,5.0,39.5100738,2.7511166,"Trasimeno, 7, Platja de Palma, 07600 Playa de Palma, Illes Balears, Spain"
163,azuline Hotel Bahamas & Bahamas II,3.0,39.4968513,2.755172200000001,"Av. Europa, s/n, 07600 El Arenal, Illes Balears, Spain"
164,Balear,3.0,39.6952629,3.0175712,"Majorca, Balearic Islands, Spain"
165,Ipanema Beach,3.0,39.4976006,2.7538028,"Carrer Antoni Maria Alcover, 8, 07600 El Arenal, Illes Balears, Spain"
166,Hotel Vibra Palma Cactus,3.0,39.5241781,2.7416219,"Carrer d'Acapulco, 26, Platja de Palma, 07610 Palma, Illes Balears, Spain"
167,tent Capi Playa,3.0,39.5226817,2.7400787,"Carrer de la Costa Brava, 4, Platja de Palma, 07610 Palma, Illes Balears, Spain"
168,BQ Carmen Playa Hotel,3.0,39.5101678,2.752669,"Carrer de Ferran Alzamora, 32, Platja de Palma, 07600 Palma, Illes Balears, Spain"
169,Villa Chiquita,4.0,39.3242127,2.9860438,"Calle Esmeralda, 14, Carrer Esmeragda, 14, 07638 Colonia de Sant Jordi, Illes Balears, Spain"
170,Nura Condor,3.0,39.5220422,2.7453383,"Carrer de la Mar Aràbiga, 1, Platja de Palma, 07610 Palma, Illes Balears, Spain"
171,Hotel Cosmopolitan,4.0,39.5236064,2.7460641,"Calle Mar de Aral, Cam. de las Maravillas, 4, Playa de Palma, 07610 El Arenal, Illes Balears, Spain"
172,allsun Hotel Cristobal Colon,4.0,39.5207858,2.7443917,"Calle Parcelas, 13, Platja de Palma, 07610 Palma, Illes Balears, Spain"
173,Universal Grand León & Spa,5.0,39.3206592,2.9886986,"Carrer Sol, s/n, 07638 Colònia de Sant Jordi, Illes Balears, Spain"
174,Don Miguel Playa Hotel,3.0,39.5238291,2.747188,"Carrer de la Mar del Japó, 2, Platja de Palma, 07610 Palma, Illes Balears, Spain"
175,HM Dunas Blancas,4.0,39.50927960000001,2.7510977,"Carrer de Trasimè, 12, Platja de Palma, 07600 Palma, Illes Balears, Spain"
176,THB El Cid,4.0,39.5346057,2.7222189,"Carrer del Vaixell, 2, Platja de Palma, 07610 Palma, Illes Balears, Spain"
177,El Coto,4.0,39.3237898,2.9876737,"Av. Primavera, 8, 07638 Ses Salines, Illes Balears, Spain"
178,Hotel Príncipe,4.0,39.5217539,2.7421896,"Avinguda de Son Rigo, 14, Platja de Palma, 07610 Palma, Illes Balears, Spain"
179,allsun Hotel Marena Beach,4.0,39.5063054,2.752013,"Carrer d'Amílcar, 1, Platja de Palma, 07600 PLAYA DE, Illes Balears, Spain"
180,Apartments Es Trenc,3.0,39.3445602,2.9845874,"Es Trenc, Spain"
181,MySeaHouse Hotel Flamingo,5.0,39.5152959,2.7463295,"Carrer de la Missió de San Diego, 2, Platja de Palma, 07600 Palma, Illes Balears, Spain"
182,Aparthotel Fontanellas Playa,4.0,39.5321105,2.7267327,"Carrer de la Caravel·la, s/n, Platja de Palma, 07610 Can Pastilla, Illes Balears, Spain"
183,Pure Salt Garonda,5.0,39.5203099,2.7412085,"Carrer de la Mar Negra, 2, Platja de Palma, 07610 Palma, Illes Balears, Spain"
184,tent Playa de Palma,3.0,39.509709,2.7552137,"Carrer dels Tamarells, Platja de Palma, 07600 Palma, Illes Balears, Spain"
185,HSM Golden Playa,4.0,39.5288111,2.7319451,"Carrer de Marbella, 14, Platja de Palma, 07610 Platja de Palma, Illes Balears, Spain"
186,HM Gran Fiesta,4.0,39.5252038,2.7355486,"Carrer de Marbella, 28, Platja de Palma, 07610 Palma, Illes Balears, Spain"
187,Hispania,4.0,39.6952629,3.0175712,"Majorca, Balearic Islands, Spain"
188,Hotel Foners,3.0,39.5176497,2.7463031,"Calle Mision de Santa Barbara, 8, Platja de Palma, 07610 Platja de Palma, Illes Balears, Spain"
189,Ipanema Park,3.0,39.497857,2.7539704,"Carrer Antoni Maria Alcover, 11, 07600 Llucmajor, Illes Balears, Spain"
190,Isla de Cabrera Aparthotel,4.0,39.3194963,2.9980455,"C, Av. Marquès del Palmer, 07638 Colònia de Sant Jordi, Illes Balears, Spain"
191,Jade,3.0,39.516744,2.7474407,"Carrer d'Agustí Catany, 8, Platja de Palma, 07600 Palma, Illes Balears, Spain"
192,Kilimanjaro,3.0,39.6952629,3.0175712,"Majorca, Balearic Islands, Spain"
193,allsun Hotel Kontiki Playa,4.0,39.5248723,2.7366134,"Carrer de Marbella, 30, Platja de Palma, 07610 Palma, Illes Balears, Spain"
194,Cook's Club Palma Beach,3.0,39.52049179999999,2.7471899,"Carrer de Sant Ramon Nonat, 16, Platja de Palma, 07610 Palma, Illes Balears, Spain"
195,Leblon,1.0,39.6952629,3.0175712,"Majorca, Balearic Islands, Spain"
196,Leman,4.0,39.6952629,3.0175712,"Majorca, Balearic Islands, Spain"
197,Alua Leo,4.0,39.5342667,2.7245211,"Carrer de Manuela de los Herreros, 12, Platja de Palma, 07610 Can Pastilla, Illes Balears, Spain"
198,Seramar Luna Park,3.0,39.4978169,2.7534955,"Carrer Antoni Maria Alcover, 6, 07600 El Arenal, Illes Balears, Spain"
199,Hotel Luxor,4.0,39.5229129,2.743237,"Avinguda de Son Rigo, 21, Platja de Palma, 07610 Palma, Illes Balears, Spain"
200,AluaSoul Palma,4.0,39.5370592,2.7097505,"Maestro, Cala Estancia, Carrer d'Eaktai Ahn, 40, Playa de Palma, 07610 Mallorca, Illes Balears, Spain"
201,Manaus,3.0,39.6952629,3.0175712,"Majorca, Balearic Islands, Spain"
202,Hotel Marbel,3.0,39.7095713,3.4569777,"Carrer Magallanes, 43, 07590 Cala Rajada, Illes Balears, Spain"
203,THB Maria Isabel,4.0,39.5238935,2.7421485,"Carrer de Villagarcia de Arosa, 19, Platja de Palma, 07610 Palma, Illes Balears, Spain"
204,Martorell,3.0,39.3175726,2.9941995,"Carrer Cervantes, 2, 07638 Colònia de Sant Jordi, Illes Balears, Spain"
205,BLUESEA Mediodia,3.0,39.5028245,2.7525457,"Carrer de Sant Cristòfol, 13, 07600 Llucmajor, Illes Balears, Spain"
206,Hotel Marina Playa,3.0,39.5071109,2.7512793,"Carrer de Tòquio, 2, Platja de Palma, 07600 Palma, Illes Balears, Spain"
207,Metropolitan Playa Hotel,5.0,39.5229171,2.7464825,"Carrer de la Mar d'Aral, 6, Platja de Palma, 07610 Palma, Illes Balears, Spain"
208,whala!fun,4.0,39.5002358,2.7525301,"Carrer Terral, 23, 07600 El Arenal, Illes Balears, Spain"
209,Hotel Negresco,4.0,39.5258141,2.7349806,"Carrer de Neopàtria, 2, Platja de Palma, 07610 Palma, Illes Balears, Spain"
210,Universal Hotel Neptuno,4.0,39.5146047,2.7474205,"Carrer del Llaüt, 34, Platja de Palma, 07600 Mallorca, Illes Balears, Spain"
211,Niagara,4.0,39.6952629,3.0175712,"Majorca, Balearic Islands, Spain"
212,Hotel Oleander,3.0,39.5258758,2.7379347,"Carrer d'Acaia, 12, Platja de Palma, 07610 Palma, Illes Balears, Spain"
213,MLL Mediterranean Bay,4.0,39.4989549,2.7534209,"Carrer Sant Bartomeu, 18, 07600 Llucmajor, Illes Balears, Spain"
214,Grupotel Orient,4.0,39.5144844,2.7533507,"Carrer Duna, 3, Platja de Palma, 07600 Palma, Illes Balears, Spain"
215,Pabisa Orlando  ,3.0,39.5179888,2.7468334,"Carrer de les Canyes, 15, Platja de Palma, 07610 Palma, Illes Balears, Spain"
216,JS Palma Stay,4.0,39.5359023,2.7123899,"Carrer dels Pins, 26, Platja de Palma, 07610 Palma, Illes Balears, Spain"
217,Paradiso Garden Hotel,4.0,39.5125298,2.7509204,"Carrer de la Perla, 28, Platja de Palma, 07600 Playa de Palma, Illes Balears, Spain"
218,allsun Hotel Pil·larí Playa,5.0,39.5263981,2.7345576,"Carrer de Marbella, 24, Platja de Palma, 07610 Palma, Illes Balears, Spain"
219,Hotel Playa Golf,4.0,39.515908,2.7460574,"Carrer del Llaüt, 26, Platja de Palma, 07610 Palma, Illes Balears, Spain"
220,Planet One Hotel,3.0,39.5079111,2.7517889,"Carrer de Trasimè, 26, Platja de Palma, 07600 El Arenal, Illes Balears, Spain"
221,HSM Reina del Mar,3.0,39.50102630000001,2.75439,"Carrer Balears, s/n 07600, 07600 El Arenal, Illes Balears, Spain"
222,HSM Son Veri,3.0,39.4986667,2.7544139,"Av. Europa, 3, 07600 El Arenal, Illes Balears, Spain"
223,Pabisa Bali Tower,4.0,39.5182443,2.7489463,"Avinguda de Fra Joan Llabrés, 10, Platja de Palma, 07600 Palma, Illes Balears, Spain"
224,Hotel Riu Bravo,4.0,39.5160134,2.7473342,"Palma, Mallorca, Islas Baleares Islas Baleares ES, Misión de San Diego, 4, Playa de Palma, 07610 Playa de, Illes Balears, Spain"
225,Hotel BG Caballero,4.0,39.5275444,2.7363023,"Carrer de Neopàtria, 3, Platja de Palma, 07610 Palma, Illes Balears, Spain"
226,Hotel Pabisa Chico,4.0,39.520146,2.7478455,"Camí de Las Maravillas s/n, Playa de Palma, 07610 Playa de Palma, Illes Balears, Spain"
227,Hotel Riu Concordia,4.0,39.5179747,2.7455276,"Camí de les Meravelles, 8, Platja de Palma, 07610 Playa de Palma - Mallorca, Illes Balears, Spain"
228,Hotel Riu Festival,4.0,39.5192734,2.7465663,"Camí de les Meravelles, 7, Platja de Palma, 07610 Palma, Illes Balears, Spain"
229,Obelisco,4.0,39.5186176,2.746672,"Camí de les Meravelles, 10, Platja de Palma, 07610 Palma, Illes Balears, Spain"
230,Hotel Riu Playa Park,3.0,39.51873519999999,2.7483829,"Carrer del Pare Bartomeu Salvà, 15, Platja de Palma, 07610 Palma, Illes Balears, Spain"
231,Hotel Riu San Francisco,4.0,39.5169064,2.7452905,"Carrer del Llaüt, 24, Platja de Palma, 07610 Playa de Palma, Illes Balears, Spain"
232,Pabisa Sofia,5.0,39.5197813,2.7460342,"Carrer de Sant Ramon Nonat, 14, Platja de Palma, 07610 Palma, Illes Balears, Spain"
233,Riutort,3.0,39.5079258,2.7536299,"Calle Bartolomé Calafell, 13, Platja de Palma, 07600 El Arenal, Illes Balears, Spain"
234,allsun Hotel Riviera Playa,4.0,39.5257517,2.7356715,"Carrer de Marbella, 26, Platja de Palma, 07610 Palma, Illes Balears, Spain"
235,Iberostar Cristina,4.0,39.52429110000001,2.7397577,"Carrer de Bartomeu Xamena, s/n, Platja de Palma, 07610 Playa de Palma, Illes Balears, Spain"
236,Iberostar Bahía de Palma,4.0,39.52442070000001,2.7371328,"Carrer de Marbella, 32, Platja de Palma, 07610 Playa de, Illes Balears, Spain"
237,Iberostar Selection Playa de Palma,5.0,39.5234776,2.7384031,"Carrer de Marbella, 36, Platja de Palma, 07610 Palma, Illes Balears, Spain"
238,MLL Caribbean Bay,0.0,39.5014559,2.7534506,"Carrer Trencadors, 48, 07600 Llucmajor, Illes Balears, Spain"
239,Cassandra,2.0,39.6952629,3.0175712,"Majorca, Balearic Islands, Spain"
240,Hotel Java,4.0,39.5332352,2.7261635,"Carrer de la Goleta, 7, Platja de Palma, 07610 Can Pastilla, Illes Balears, Spain"
241,Hotel Timor,4.0,39.5129162,2.7514881,"Carrer Montemar, 12, Platja de Palma, 07600 Palma, Illes Balears, Spain"
242,HM Tropical,4.0,39.5284211,2.7324436,"Carrer de Marbella, 16, Platja de Palma, 07610 Palma, Illes Balears, Spain"
243,THB Sur Mallorca,4.0,39.318414,2.9862497,"Carrer Cristòfol Colón, s/n, 07638 Colònia de Sant Jordi, Illes Balears, Spain"
244,Grupotel Taurus Park,4.0,39.5137449,2.7527893,"Av. d'Amèrica, 7, Platja de Palma, 07600 Palma, Illes Balears, Spain"
245,Houm Nets Hotel,2.0,39.5230319,2.7419385,"Carrer de Villagarcia de Arosa, 20, Platja de Palma, 07610 Palma, Illes Balears, Spain"
246,BlueSea Arenal Tower,3.0,39.5015218,2.7546223,"Carrer Balears, 2, 07600 Llucmajor, Illes Balears, Spain"
247,Torre Azul,4.0,39.4988088,2.7549163,"Carrer Sant Bartomeu, 24, 07600 Palma, Illes Balears, Spain"
248,Tres Torres,2.0,39.51386129999999,2.7503717,"Carrer dels Trobadors, 5, Platja de Palma, 07600 Palma, Illes Balears, Spain"
249,HSM Venus Playa,3.0,39.5235663,2.7425111,"Carrer de Villagarcia de Arosa, 24, Platja de Palma, 07610 Platja de Palma, Illes Balears, Spain"
250,Vista Odin,3.0,39.5225525,2.7468314,"Carrer de la Mar d'Aral, 13, Platja de Palma, 07610 Palma, Illes Balears, Spain"
251,Best Delta,4.0,39.452017,2.753774,"Urbanización Puig de Ros, s/n, Carrer Tudó, 07609 Puigderrós, Illes Balears, Spain"
252,Globales Maioris,4.0,39.4529109,2.7531962,"Carrer del Tudó, 6, 07609 Puigderrós, Illes Balears, Spain"
253,BQ Belvedere Hotel,3.0,39.554143,2.599255,"Carrer de la Mitja Lluna, 4, Ponent, 07015 Palma, Illes Balears, Spain"
254,Club Cala Romani ,3.0,39.4635925,3.2750117,"Carrer de sa Mola, 90, 07689 Cales de Mallorca, Illes Balears, Spain"
255,Beach Club Font de Sa Cala,4.0,39.6818159,3.4522518,"la Font de la Cala, Av. Provensals, 27, 07589 Provensals, Illes Balears, Spain"
256,Playa Blanca Hotel,3.0,28.8654256,-13.8431195,"Playa Blanca, Las Palmas, Spain"
257,Iberostar Club Cala Barca,4.0,39.3536972,3.1999328,"Sa Barca Trencada, S/N, Carrer de la Barca Trencada, 18D, 07691 Barca Trencada, Illes Balears, Spain"
258,Hotel Cala d’Or Gardens Mallorca,3.0,39.3714132,3.2293412,"Av. de Bèlgica, 49, 07660 Cala D'or, Illes Balears, Spain"
259,Hotel Cala Ferrera,3.0,39.3801284,3.2387288,"07669 Cala Ferrera, Balearic Islands, Spain"
260,Gavimar Cala Gran Costa del Sur,3.0,39.3746496,3.2314181,"Av. de sa Cala Gran, 2, 07660 Cala D'or, Illes Balears, Spain"
261,Hotel Club Cala Marsal,4.0,39.4103281,3.2547455,"Playa Cala Marsal, s/n, 07670 Portocolom, Illes Balears, Spain"
262,Zafiro Cala Mesquida,4.0,39.7429774,3.4292931,"Urbanización, 07580 Cala Mesquida, Illes Balears, Spain"
263,HSM Calas Park,3.0,39.4605631,3.2801917,"C, Carrer de Cala Romeguera, 3, bajos, 07689 Cales de Mallorca, Illes Balears, Spain"
264,Canyamel Park Hotel & Appartements,4.0,39.658455,3.4391076,"07589 Canyamel, Balearic Islands, Spain"
265,Universal Apartamentos Laguna Garden,3.0,39.6552696,3.4377059,"Carrer Costa Llobera, 60, 07589 Canyamel, Illes Balears, Spain"
266,Iberostar Pinos Park,4.0,39.6828666,3.4520343,"Carretera de Sa Font de Sa Gala, 33, 07589 Font de Sa Cala, Illes Balears, Spain"
267,BLUESEA Ses Cases d’Or,3.0,39.36376,3.2273802,"Carrer d'es Parc de la Mar, 6, 07660 Cala D'or, Illes Balears, Spain"
268,Pierre & Vacances Apartamentos Mallorca Cecilia,3.0,39.408314,3.258087,"Carrer de la Gavina, 07670 Portocolom, Illes Balears, Spain"
269,Insotel Cala Mandía Resort & Spa,4.0,39.5221828,3.3114682,"Passeig Federico García Lorca, s/n, 07680 Cala Mendia, Illes Balears, Spain"
270,Ferrer Lime Isabel,3.0,39.6220685,3.3907508,"Carrer des Prat, s/n, 07559 Cala Bona, Illes Balears, Spain"
271,Condemar,1.0,39.3537715,3.1899815,"Ctra. A.Blanca-C. Mondragó, s/n, 07691, Illes Balears, Spain"
272,JS Portocolom Suites,4.0,39.414364,3.2589632,"Carrer de l'Orada, 07670 Portocolom, Illes Balears, Spain"
273,Hotel Club Es Talaial,3.0,39.3652469,3.2282713,"Av. d'es Fortí, 20, 07660 Cala D'or, Illes Balears, Spain"
274,HYB Eurocalas,3.0,39.4680634,3.2751035,"Carrer de Cala Antena, s/n, 07689 Cales de Mallorca, Illes Balears, Spain"
275,Hipotels Eurotel Punta Rotja,4.0,39.6362598,3.4146826,"Av. del Pinar, s/n, 07559 Costa dels Pins, Illes Balears, Spain"
276,THB Felip,4.0,39.5413188,3.334907,"Carrer d'En Bordils, 41, 07680 Porto Cristo, Illes Balears, Spain"
277,MarSenses Ferrera Blanca,4.0,39.3808966,3.2361893,"Carrer sa Partió, 1, 07669 Cala D'or, Illes Balears, Spain"
278,Protur Floriana Resort Aparthotel,3.0,39.6123,3.38586,"Carrer de ses Joanetes, s/n, 07559 Cala Bona, Illes Balears, Spain"
279,Alua Suites Las Rocas,4.0,39.3625,3.2308333,"Av. d'es Fortí, 107, 07660 Cala D'or, Illes Balears, Spain"
280,Lliteras Appartements,2.0,39.569661,3.210479,"Carrer dels Tonadors, 8, 07500 Manacor, Illes Balears, Spain"
281,Hotel La Santa Maria Playa,3.0,39.5961111,3.3811111,"Carrer Llum, 14, 07560 Cala Millor, Illes Balears, Spain"
282,Protur Vista Badía Aparthotel,4.0,39.5801659,3.3768804,"Carrer Xiprers, 07560 Sa Coma, Illes Balears, Spain"
283,Hotel Na Taconera Sport & Relax,3.0,39.68682949999999,3.4499391,"Carretera de Sa Font de Sa Gala, s/n, 07589 Capdepera, Illes Balears, Spain"
284,Hotel Baluma Porto Petro,3.0,39.3618062,3.2096565,"Carrer des Patrons Martina, 3, 07691 Portopetro, Illes Balears, Spain"
285,Peymar,3.0,39.6952629,3.0175712,"Majorca, Balearic Islands, Spain"
286,Pinomar,2.0,39.5526602,2.619458,"Carrer de Vista Alegre, 24, Ponent, 07015 Palma, Illes Balears, Spain"
287,Pinos Playa,3.0,39.3290177,3.1463036,"Carrer sa Costa d'en Nofre, 15, 07659 Cala Santanyí, Illes Balears, Spain"
288,Playa Dorada,3.0,39.5694744,3.3735994,"Mallorca Islas Baleares ES, Carrer Aritja, n. 7, 07560 Sa Coma, Illes Balears, Spain"
289,Inturotel Esmeralda Park,3.0,39.377642,3.237479,"Carrer Caló des Corral, s/n, 07660 Cala D'or, Illes Balears, Spain"
290,Playamar Hotel & Apartamentos,2.0,39.5681964,3.3718784,"Rosa De Los Vientos, 7, 07687 S'Illot, Illes Balears, Spain"
291,Playa Mondrago,3.0,39.3528495,3.1894185,"Cala Mondragó s/n, 07691 Beachfront, Illes Balears, Spain"
292,Playa Moreya,5.0,39.5663309,3.3716257,"Camí de la Mar, 2, 07687 S'Illot-Cala Morlanda, Illes Balears, Spain"
293,Barceló Aguamarina,4.0,39.5694413,2.6371662,"Pg. Marítim, 37, Local C, Poniente, 07014 Palma, Illes Balears, Spain"
294,Hotel Palia Puerto del Sol,3.0,39.3700133,3.2222049,"Avinguda de Cala Llonga, 07660 Cala D'or, Illes Balears, Spain"
295,MiM Mallorca,4.0,39.5688313,3.3736875,"Carrer Gregal, 22, 07687 S'Illot, Illes Balears, Spain"
296,Blau Punta Reina Resort,4.0,39.5178788,3.3143709,"Plaça de s'Algar, 07680 Cala Anguila-Cala Mendia, Illes Balears, Spain"
297,Protur Sa Coma Playa Hotel & Spa,4.0,39.580986,3.3774187,"Carrer Eucaliptus, 07560 Sa Coma, Illes Balears, Spain"
298,THB Sa Coma Platja,4.0,39.5764915,3.3769888,"Avinguda de les Savines, 1, 07560 Mallorca, Illes Balears, Spain"
299,Hipotels Mediterráneo,4.0,39.5715884,3.374041,"Avinguda de les Savines, s/n, 07560 Sa Coma, Illes Balears, Spain"
300,Sabina Hotel & Suites,4.0,39.6011111,3.3844444,"Carrer de na Penyal, 1, 07560 Cala Millor, Illes Balears, Spain"
301,Globales Samoa,3.0,39.4606369,3.2782148,"Carrer de Formentor, s/n, 07689 Cales de Mallorca, Illes Balears, Spain"
302,Sinfony Apartamentos,5.0,39.656832,3.4385437,"Vía Melesigeni, 14 Recepción 24 Aptos GR Canyamel Garden Via Costa Llobera s/n, Via Melesigeni, 14, 07589 Canyamel, Illes Balears, Spain"
303,Monsuau Cala D´Or Boutique Hotel,4.0,39.3833568,3.2382739,"Av. Cala d'Or, 2, 07669 Felanitx, Illes Balears, Spain"
304,Sentido Fido Tucan,4.0,39.3745415,3.2304918,"Carrer Boulevard d'Or, 4, 07660 Cala D'or, Illes Balears, Spain"
305,Apartamentos Massanet,5.0,39.84315369999999,3.1237295,"Carrer d'Antoni Maria Alcover, 07400 Alcudia, Illes Balears, Spain"
306,Hotel Mariant,3.0,39.5693347,3.3727041,"Carrer Llevant, 11, 07560 S'Illot, Illes Balears, Spain"
307,Hotel Mariant Park,4.0,39.5699932,3.3714227,"Avinguda de les Savines, 178, 07560 Sa Coma, Illes Balears, Spain"
308,Oasis d'Or,2.0,39.3747209,3.2325524,"Carrer dels Ravells, 4, 07660 Cala D'or, Illes Balears, Spain"
309,Inturotel Cala Esmeralda Beach Hotel & Spa,4.0,39.375279,3.236653,"Carrer de Cala Esmeralda, s/n, 07660 Cala D'or, Illes Balears, Spain"
310,Marfil Playa,4.0,39.5762377,3.3748928,"Carrer Card, 1, 07560 Sa Coma, Illes Balears, Spain"
311,Parque Mar,3.0,39.3623748,3.2287963,"d'es s/n, Carrer d'es Parc de la Mar, 07660 Cala d'Or, Santanyi, Islas Baleares, Illes Balears, Spain"
312,ROBINSON Cala Serena,4.0,39.3811572,3.2411522,"Av. Calo Petit, 1, 07660 Cala D'or, Illes Balears, Spain"
313,Boutique Hostal Ventura,2.0,39.6952629,3.0175712,"Majorca, Balearic Islands, Spain"
314,R2 Verónica Beach Hotel,3.0,39.5995158,3.3839567,"Carrer Primavera, 2, 07560 Cala Millor, Illes Balears, Spain"
315,Apartamentos Sureda,2.0,39.657257,3.438076,"Via Foner, 49, (Mallorca), 07589 Capdepera, Illes Balears, Spain"
316,HSM Canarios Park,3.0,39.4698601,3.2755053,"Carrer de Cala Antena, 23, 07689 Cales de Mallorca, Illes Balears, Spain"
317,Sol y Mar,3.0,39.5272876,2.7336359,"Carrer de Marbella, 20, local 92, Platja de Palma, 07610 Palma, Illes Balears, Spain"
318,S'Olivera Apartments,2.0,39.65716,3.438981,"Via del Foner, 07589 Canyamel, Illes Balears, Spain"
319,Iberostar Selection Albufera Park,4.0,39.7873765,3.1275334,"Calle Dunes, 1, Avenida Playas de Muro, 07458 Playa del Muro, Mallorca, Illes Balears, Spain"
320,Iberostar Selection Albufera Playa,4.0,39.7867716,3.1280553,"Avda. Playa de Muro, s/n, 07458 Alcúdia, Illes Balears, Spain"
321,Eix Alcudia Hotel,4.0,39.8436736,3.1332581,"Carrer de Teodor Canet, 43, 07400 Port d'Alcúdia, Illes Balears, Spain"
322,Alcudia Beach Aparthotel,3.0,39.8356863,3.1171116,"Av. de Nicolau Riera-Marsà, 6, 07400 Alcúdia, Illes Balears, Spain"
323,Innside by Melia Alcudia,4.0,39.831904,3.115494,"Av. Pere Mas i Reus, 07400 Alcúdia, Illes Balears, Spain"
324,Iberostar Alcudia Park,4.0,39.8116682,3.1157103,"Av. de s'Albufera, 30, 07458 Playa de, Illes Balears, Spain"
325,Grupotel Alcudia Suite,4.0,39.81011489999999,3.1152458,"Av. Else Hetzel, s/n, 4, 07458 Alcúdia, Illes Balears, Spain"
326,BQ Alcudia Sun Village ,3.0,39.8119134,3.1120628,"C / Circuito del Lago, 60, 07408 Las Gaviotas, Illes Balears, Spain"
327,Grupotel Amapola,3.0,39.8116779,3.1107934,"Carrer Circuit del Llac, 49, 07458 Playa de Muro, Illes Balears, Spain"
328,Hotel Astoria Playa,4.0,39.83306839999999,3.1163861,"Carrer de l'Astoria, 1, 07400 Port d'Alcúdia, Illes Balears, Spain"
329,Bahia de Alcudia Hotel & Spa ,4.0,39.84338899999999,3.1285217,"Av. de la Playa, 6, 07400 Port d'Alcúdia, Illes Balears, Spain"
330,Bahia Pollensa,3.0,39.8937831,3.0752626,"Carrer del Noguer, 1, 07470 Port de Pollença, Illes Balears, Spain"
331,Es Bauló Petit Hotel,4.0,39.7597222,3.1591667,"Ctra. Santa Margalida, 28, 07458 Can Picafort, Illes Balears, Spain"
332,BelleVue Club,3.0,39.8310942,3.1118892,"Av. Pere Mas i Reus, 0 S N, 07400 Platja D, Illes Balears, Spain"
333,Alua Boccaccio,4.0,39.83143,3.1162277,"Av. Pere Mas i Reus, 3, 07400 Port d'Alcúdia, Illes Balears, Spain"
334,Cala Sant Vicenç,5.0,39.9181224,3.0539369,"Cala Sant Vicenç, Balearic Islands, Spain"
335,JS Sol de Can Picafort,3.0,39.7674682,3.1515755,"Passeig Colón, 88, 07458 Can Picafort, Illes Balears, Spain"
336,Capri,3.0,39.6952629,3.0175712,"Majorca, Balearic Islands, Spain"
337,Carlos V Apartments,5.0,39.8525809,3.124215,"Carrer de Pollèntia, 2, 07400 Alcúdia, Illes Balears, Spain"
338,Iberostar Ciudad Blanca,4.0,39.832508,3.117615,"Carretera d'Artà, 43, 07400 Alcúdia, Illes Balears, Spain"
339,BQ Can Picafort Hotel,4.0,39.7666176,3.150321,"Carrer Arenal, 24, 07458 Can Picafort, Illes Balears, Spain"
340,Ferrer Concord Hotel & Spa,4.0,39.7596166,3.1688422,"Carrer Isaac Peral, 95, 07458 Can Picafort, Illes Balears, Spain"
341,Globales Condes de Alcúdia,3.0,39.8426257,3.128631,"Avinguda de la Platja, 4, 07410 Port d'Alcúdia, Illes Balears, Spain"
342,Hotel Condesa,4.0,39.8175488,3.1155216,"Carrer de les Roselles, 4, 07410 Alcúdia, Illes Balears, Spain"
343,Hotel Hoposa Daina,4.0,39.9075755,3.0828599,"Carrer de Formentor, 29, 07470 Port de Pollença, Illes Balears, Spain"
344,BQ Delfín Azul Hotel,4.0,39.837216,3.1185999,"Carrer de la Fotja, 1, 07400 Playa de Alcudia, Illes Balears, Spain"
345,Olive Beach Apartamentos,2.0,39.8381314,3.1213146,"Carrer de Diana, 8, 07400 Alcúdia, Illes Balears, Spain"
346,Globales Don Pedro,4.0,39.9208939,3.055539,"Carrer Cala Clara, 4, 07469 Cala Sant Vicenç, Illes Balears, Spain"
347,VIVA Eden Lago,4.0,39.817737,3.1125749,"Urbanización Lago Esperanza, Carrer de les Savines, s/n, 07400 Port d'Alcúdia, Illes Balears, Spain"
348,allsun Hotel Eden Alcudia,4.0,39.816182,3.1144819,"Carretera d'Artà, 135, 07410 Alcúdia, Illes Balears, Spain"
349,Universal Aparthotel Elisa,4.0,39.8131211,3.1108458,"Carrer Circuit del Llac, 1, 07458 Playa de Muro, Illes Balears, Spain"
350,Hotel Es Molí,4.0,39.746983,2.6433875,"Carretera, s/n, 07179 Valldemossa, Illes Balears, Spain"
351,Hotel Es Port,4.0,39.7965581,2.6994741,"Carrer d'Antoni Montis, 10, 07108 Port de Sóller, Illes Balears, Spain"
352,Exagon Park,4.0,39.7564684,3.1660964,"Ronda de la Pleta, 46, 07458 Can Picafort, Illes Balears, Spain"
353,Grupotel Farrutx,4.0,39.7683315,3.1482565,"Carrer Miquel dels Sants Oliver, 07458 Can Picafort, Illes Balears, Spain"
354,Flora,3.0,39.6952629,3.0175712,"Majorca, Balearic Islands, Spain"
355,Galaxia Boutique Hotel,1.0,39.7667052,3.153194,"Passeig Colón, 91, 07458 Can Picafort, Illes Balears, Spain"
356,FERGUS Style Soller Beach,4.0,39.796733,2.6966088,"Carrer de la Marina, 4, 07108 Port de Sóller, Illes Balears, Spain"
357,VIVA Golf,5.0,39.8408858,3.1271639,"Carretera d'Artà, 13, 07400 Alcúdia, Illes Balears, Spain"
358,THB Gran Bahía,4.0,39.76681930000001,3.1541915,"Carrer Almirall Cervera, 1, 07458 Can Picafort, Illes Balears, Spain"
359,THB Gran Playa,4.0,39.7690617,3.149145,"Passeig Colón, 126, 07458 Can Picafort, Illes Balears, Spain"
360,Habitat Apartments,3.0,39.6952629,3.0175712,"Majorca, Balearic Islands, Spain"
361,Illa d'Or Hotel,4.0,39.910228,3.0947262,"Calle Colón, 265, 07470 Pollensa, Illes Balears, Spain"
362,Ivory Playa,3.0,39.8198987,3.1148644,"Carretera d'Artà, 113, 07400 Alcúdia, Illes Balears, Spain"
363,Ferrer Janeiro Hotel & Spa,4.0,39.7595639,3.1674583,"Av. Diagonal, 4, 07458 Can Picafort, Illes Balears, Spain"
364,Zafiro Bahía,4.0,39.7884897,3.1264754,"Avenida Playa de Muro, s/n, 07458 Mallorca, Illes Balears, Spain"
365,La Residencia,5.0,39.7486541,2.6488276,"Carrer son Canals, 07179 Deià, Illes Balears, Spain"
366,EIX Lagotel Holiday Resort,4.0,39.811418,3.1064995,"Carrer Circuit del Llac, sn, 07458 Playa de Muro, Illes Balears, Spain"
367,Hotel Las Gaviotas Suites Hotel,4.0,39.81287210000001,3.1146663,"Av. de s'Albufera, 51, 07458 Muro, Illes Balears, Spain"
368,L'Hermitage Hotel & Spa,4.0,39.73571370000001,2.7724672,"Ma-2100, 07349 Bunyola, Illes Balears, Spain"
369,Grupotel Los Principes & Spa,4.0,39.8146353,3.1157285,"Carrer Galió, 31, 07458 Muro, Illes Balears, Spain"
370,Prinsotel Mal Pas,4.0,39.8633508,3.1405845,"Camí Vell de la Victòria, 07400 Alcúdia, Illes Balears, Spain"
371,Aparthotel Maracaibo,3.0,39.7666145,3.1511481,"Via Alemanya, 24, 07458 Can Picafort, Illes Balears, Spain"
372,Pure Salt Port de Sóller,4.0,39.7913297,2.6899944,"Camí del Far, 5, 07108 Port de Sóller, Illes Balears, Spain"
373,Alcudia Port Suites,5.0,39.8423902,3.1309988,"Mallorca, Carrer del Coral, 4, 07410 Puerto de Alcudia, Illes Balears, Spain"
374,Grupotel Maritimo,4.0,39.816385,3.1137094,"Carretera d'Artà, 158, 07400 Alcúdia, Illes Balears, Spain"
375,Ilusion Markus & Spa,3.0,39.76418899999999,3.150662,"Vía Suiza, 66, 07458 Can Picafort, Illes Balears, Spain"
376,Miramar,2.0,39.73914449999999,2.6183018,"07170 Miramar, Illes Balears, Spain"
377,Nordeste Playa,3.0,39.7668374,3.152114,"Via França, 10, 07458 Can Picafort, Illes Balears, Spain"
378,JS Miramar,3.0,39.7662358,3.1556829,"Carrer Magallanes, 07458 Can Picafort, Illes Balears, Spain"
379,Hotel Niu,4.0,39.92110479999999,3.0550472,"Carrer Cala Barques, 5, 07469 Mallorca, Illes Balears, Spain"
380,Grupotel Molins,5.0,39.9202003,3.0569377,"C/ Cala Molin, s/n, 07469 Cala Sant Vicenç, Illes Balears, Spain"
381,Eden Nord,3.0,39.7993061,2.6969494,"Carrer de Mestral, 5, 07108 Port de Sóller, Illes Balears, Spain"
382,Grupotel Montecarlo,4.0,39.7679176,3.1468808,"Carrer Jovellanos, 2, 07458 Can Picafort, Illes Balears, Spain"
383,Grupotel Picafort Beach,4.0,39.7704162,3.1481778,"Passeig Colón, 130, 07458 Can Picafort, Illes Balears, Spain"
384,Eix Platja Daurada Hotel & SPA,4.0,39.77232070000001,3.1440847,"Passeig Colón, s/n, 07458 Can Picafort, Illes Balears, Spain"
385,Hoposa Hotel Pollentia,4.0,39.8961547,3.0781943,"Passeig de Londres, 62, 07470 Port de Pollença, Illes Balears, Spain"
386,Grupotel Port d'Alcudia,4.0,39.8375204,3.1175259,"C/ Cisne Blanco, s/n S.L Islas Baleares, 07410 Puerto de Alcudia, B57062085, Spain"
387,Bikini Island & Mountain Hotel Port de Sóller,3.0,39.8005748,2.6946436,"Carrer de Migjorn, 2, 07108 Port de Sóller, Illes Balears, Spain"
388,Inmood Aucanada,4.0,39.8382873,3.157012,"Camí d'Alcanada, 65, 07400 Alcúdia, Illes Balears, Spain"
389,BG Hotel Rei del Mediterrani Palace,4.0,39.8141824,3.1088247,"Carrer Creuer, 14, 07458 Playa de Muro, Illes Balears, Spain"
390,Romantic,3.0,39.5039949,2.752008,"Carrer de Cartago, 69, Platja de Palma, 07600 Palma, Illes Balears, Spain"
391,Hotel Sa Coma,3.0,39.6952629,3.0175712,"Majorca, Balearic Islands, Spain"
392,The Sea Hotel by Grupotel ,4.0,39.7708168,3.1480464,"Passeig Colón, 132, 07458 Can Picafort, Illes Balears, Spain"
393,BQ Sarah Hotel,3.0,39.7596466,3.1668463,"Av. Diagonal, 6, 07458 Can Picafort, Illes Balears, Spain"
394,Sea Club Alcúdia Mediterranean Resort,3.0,39.8340257,3.1140774,"Avinguda de Mèxic, s/n, 07400 Port d'Alcúdia, Illes Balears, Spain"
395,JS Sol de Alcudia,4.0,39.8327642,3.1145736,"Avinguda de Venècia, 3, 07408 Port d'Alcúdia, Illes Balears, Spain"
396,Soller Garden,5.0,39.799647,2.6988722,"Plaça de Reis de Mallorca, 5, 07108 Port de Sóller, Illes Balears, Spain"
397,Hotel Son Bauló,3.0,39.7590829,3.1689091,"Ronda Torrent, 1, 07458 Can Picafort, Illes Balears, Spain"
398,Sultan Hotel,2.0,39.7690965,3.1486112,"Passeig Colón, 147, 07458 Can Picafort, Illes Balears, Spain"
399,VIVA Sunrise,4.0,39.833557,3.1129473,"Avinguda de Mèxic, 7, 07410 Alcúdia, Illes Balears, Spain"
400,Zafiro Tropic,4.0,39.8428648,3.1267598,"Carrer d'Anselm Turmeda, 1, 07400 Alcúdia, Illes Balears, Spain"
401,Hoposa Hotel Uyal,4.0,39.8952617,3.0781277,"Passeig de Londres, 68- 70, 07470 Port de Pollença, Illes Balears, Spain"
402,Villa Barbara,1.0,39.7681187,3.1503014,"Carrer Platja, 17, 07458 Can Picafort, Illes Balears, Spain"
403,Vista Park Hotel & Apartamentos,3.0,39.7603875,3.1661234,"Avinguda del Romaní, 10, 07458 Can Picafort, Illes Balears, Spain"
404,Bordoy Continental Valldemossa,3.0,39.7353083,2.6126778,"Carretera Ma- 10, Km 68.3, 07170 Valldemossa, Illes Balears, Spain"
405,Finca Ca N'ai,4.0,39.7781197,2.6969893,"Camí de Son Sales, 50, 07100 Sóller, Illes Balears, Spain"
406,Grupotel Dunamar,4.0,39.7712444,3.1475777,"Passeig Colón, 134, 07458 Can Picafort, Illes Balears, Spain"
407,HSM Lago Park,3.0,39.8147294,3.1134264,"Carrer Iola, s/n, 07458 Platja de Muro, Illes Balears, Spain"
408,Citric Hotel Soller,5.0,39.7924538,2.6902263,"Camí del Far, s/n, 07100, Illes Balears, Spain"
409,Hotel Eden,4.0,39.7952585,2.6973592,"Passeig Es Traves, 26, 07108 Port de Sóller, Illes Balears, Spain"
410,Hotel Marina & Wellness Spa,3.0,39.7904428,2.6930207,"Platja d'en Repic Paseo la Playa, s/n, 07108 Puerto de Sóller, Illes Balears, Spain"
411,Occidental Playa de Palma,4.0,39.516342,2.7493443,"Avinguda de Fra Joan Llabrés, 16, Platja de Palma, 07600 Palma, Illes Balears, Spain"
412,Hotel Helios Mallorca,3.0,39.5336134,2.7245475,"Carrer de la Caravel·la, 7, Platja de Palma, 07610 Palma, Illes Balears, Spain"
413,Hotel Rural Monnaber Nou & Spa,4.0,39.793415,2.9516634,"Finca Monnaber Nou, s/n, 07310 Campanet, Illes Balears, Spain"
414,Son Sama,5.0,39.48803030000001,2.9386761,"Carretera Llucmajor, Ctra. Porreres, 0, Km 3 5, 07620 Llucmajor, Illes Balears, Spain"
415,Finca Hotel Predio Son Serra,3.0,39.7554893,3.1012306,"Carretera Muro - Can Picafort, 07440 Muro, Illes Balears, Spain"
416,Aumallia Hotel & Spa,4.0,39.4816675,3.2000231,"Camí d'Almallia, s/n, 07209 Felanitx, Illes Balears, Spain"
417,INNSIDE Palma Center,4.0,39.5773698,2.6502155,"Carrer de Font i Monteros, 23, Centre, 07003 Palma, Illes Balears, Spain"
418,FERGUS Style Palmanova,4.0,39.5240947,2.5391884,"Carrer Passeig de la Mar, 14, 07181 Palmanova, Illes Balears, Spain"
419,Sol Katmandú Park & Resort,4.0,39.510436,2.533803,"Carrer Galió, S/n, 07181, Illes Balears, Spain"
420,Vistasol Apartamentos,3.0,39.5108859,2.5371445,"Carrer Alt, 5, 07181 Magaluf, Illes Balears, Spain"
421,Innside Cala Blanca,4.0,39.6952629,3.0175712,"Majorca, Balearic Islands, Spain"
422,Aparthotel Novo Mar,3.0,39.5372499,2.4551503,"Carrer de les Gavines, 3, LC 1-2, 07160 Peguera, Illes Balears, Spain"
423,UR Portofino ,4.0,39.5515826,2.691875,"Carrer de Trafalgar, 24, Platja de Palma, 07007 Palma, Illes Balears, Spain"
424,TRH Jardin del Mar,3.0,39.5199928,2.4721961,"Carrer Huguet des Far, 1, 07180 Santa Ponça, Illes Balears, Spain"
425,Hotel GPRO Valparaíso Palace & Spa,5.0,39.5553455,2.6193543,"C/ de Francesc Vidal i Sureda, 23, Ponent, 07015 Palma, Illes Balears, Spain"
426,Universal Hotel Cabo Blanco,4.0,39.3220596,2.9850525,"Calle Carabela, 2, 07638 Colònia de Sant Jordi, Illes Balears, Spain"
427,Andreas Apartments,3.0,39.6952629,3.0175712,"Majorca, Balearic Islands, Spain"
428,Bahia Suites,4.0,39.539413,2.4181995,"Calle, Via Francisca Capllonch Plomer, 11, 07160 Camp de Mar, Illes Balears, Spain"
429,Europe Playa Marina,4.0,39.5397574,2.5930888,"Passeig Illetes, 68, 07181 ses Illetes, Illes Balears, Spain"
430,Bahia Principe Sunlight Coral Playa,4.0,39.5097601,2.5416687,"Carrer Torrenova, 41, 07182 Magaluf, Illes Balears, Spain"
431,BelleVue Belsana,3.0,39.4132316,3.2637008,"Carrer d'en Churruca, 7, 07670 Portocolom, Illes Balears, Spain"
432,Amazonas Hotel,3.0,39.4994312,2.751914,"Carrer Sant Bartomeu, 4, 07600 Llucmajor, Illes Balears, Spain"
433,Gavimar Ariel Chico,3.0,39.375576,3.2305391,"Carrer d'Ariel, 1, 07660 Cala D'or, Illes Balears, Spain"
434,BelleVue Lagomonte,3.0,39.8346576,3.1066702,"Carrer de L'Estany Petit, 8, 07400 Port d'Alcúdia, Illes Balears, Spain"
435,allsun Hotel Eden Playa,5.0,39.7913982,3.1241006,"Av. Platges de Muro, 07458 Mallorca, Illes Balears, Spain"
436,Aparthotel Cap de Mar,4.0,39.541667,2.423889,"07160 Camp de Mar, Balearic Islands, Spain"
437,best FAMILY Protur Safari Park,4.0,39.5812285,3.3765857,"Carrer Liles, S/N, 07560 Sa Coma, Illes Balears, Spain"
438,Globales Cala Bona Suites,4.0,39.6109924,3.3886854,"Carrer del Lliri, s/n, 07559 Cala Bona, Illes Balears, Spain"
439,ICON Valparaiso,3.0,39.4559136,3.2784427,"Carrer Aragó, 28, 07688 Manacor, Illes Balears, Spain"
440,HM Alma Beach,4.0,39.5356766,2.7169423,"Carrer de Bellamar, 7, Platja de Palma, 07610 Can Pastilla, Illes Balears, Spain"
441,Hotel Seramar Comodoro Playa,4.0,39.5120048,2.5395837,"Carrer Cala Blanca, 9, 07181 Palmanova, Illes Balears, Spain"
442,Sun Club Eldorado,2.0,39.4163574,2.7423016,"Ctra. Cabo Blanco, Km 11, 07609 Cabo Regana, Illes Balears, Spain"
443,Los Geranios,4.0,39.7901316,2.6917656,"Paseo de la Playa, 15, 07100 Port de Sóller, Illes Balears, Spain"
444,Catalonia Majorica,4.0,39.5560812,2.6223717,"Carrer de la Garita, 3, Ponent, 07015 Palma, Illes Balears, Spain"
445,Garden Holiday Village,4.0,39.81260899999999,3.1063706,"Carrer Circuit del Llac, s/n, 07458 Platja de Muro, Illes Balears, Spain"
446,AluaSun Continental Park Hotel & Apartments,4.0,39.81372349999999,3.1135522,"Carrer Iola, 4, 07458 Playa de Muro, Illes Balears, Spain"
447,HSM Club Torre Blanca ,3.0,39.5802599,3.3689207,"Avinguda de ses Palmeres, 121, 07560 Sa Coma, Illes Balears, Spain"
448,BlueSea Costa Verde,3.0,39.49545,2.7561193,"Av. Europa, 33, 07600 Llucmajor, Illes Balears, Spain"
449,Hotel Sant Jordi,3.0,39.5304373,2.7307858,"Carrer de la Grua, 5, Platja de Palma, 07610 Palma, Illes Balears, Spain"
450,JS Cape Colom,3.0,39.41172,3.2634361,"Carrer de l'Assumpció, 14, 07670 Portocolom, Illes Balears, Spain"
451,BlueSea Piscis,3.0,39.8428048,3.13382,"Carrer de Teodor Canet, 41, 07400 Port d'Alcúdia, Illes Balears, Spain"
452,Hotel Iris,3.0,39.5064389,2.75265,"Carrer d'Amílcar, 3, Platja de Palma, 07600 Palma, Illes Balears, Spain"
453,Playas de Paguera,2.0,39.5345421,2.4534997,"Playas de Paguera, Illes Balears, Spain"
454,Hotel Cala Fornells,4.0,39.5315389,2.437668,"Carretera de Cala Fornells, 76, 07160 Peguera, Illes Balears, Spain"
455,Playa Sol,2.0,39.5070422,2.7540323,"Ctra. Militar, 244, Bajo, Platja de Palma, 07600 El Arenal, Illes Balears, Spain"
456,Raxa,1.0,39.5696005,2.6501603,"Raxa, Distrito Centro, 07001 Palma, Illes Balears, Spain"
457,Aldea 2 Cala Fornells,3.0,39.5358983,2.4460715,"C/ L, Carrer Espiga, 9, 07160 Cala Fornells, Illes Balears, Spain"
458,Hotel Linda Mallorca,3.0,39.5378444,2.7162481,"Octavio Augusto, 2, Platja de Palma, 07610 Can Pastilla, Illes Balears, Spain"
459,Sa Bassa Plana,3.0,39.3899558,2.8401274,"Apartado 143, Carretera Cap Blanc, km 25, Hm 4, 07620, Illes Balears, Spain"
460,Meliá South Beach,4.0,39.503885,2.532288,"Av. Notari Alemany, 1, 07181 Calvià, Illes Balears, Spain"
461,Iberostar Cala Domingos,4.0,39.46004130000001,3.2697935,"Carrer de Cala Domingos, s/n, 07689 Cala Domingos, Illes Balears, Spain"
462,AluaSun Torrenova,4.0,39.5115783,2.5429105,"Carrer Torrenova, 6, 07181 Palmanova, Illes Balears, Spain"
463,Hotel Petit Cala Fornells,5.0,39.5318528,2.4376251,"Carretera de Cala Fornells, 78, 07160 Cala Fornells, Illes Balears, Spain"
464,Maristel Hotel & Spa,4.0,39.6526753,2.481031,"Eusebio, Carrer Eusebi Pascual, 9, 07192 Estellencs, Illes Balears, Spain"
465,Cook’s Club Calvia Beach,3.0,39.5109735,2.5374409,"Calle Alta Esquina - C/ Pineda, 07181 Torrenova, Illes Balears, Spain"
466,Apartamentos Roc Portonova,3.0,39.52498250000001,2.5419239,"Passeig Mar, 2, 07181 Palmanova, Illes Balears, Spain"
467,Portals Hills Boutique Hotel,5.0,39.5375872,2.5730411,"Carrer d'en Seguí, 4, 07181 Portals Nous, Illes Balears, Spain"
468,JS Alcudi Mar,4.0,39.8115932,3.1152148,"Av. de s'Albufera, 49, 07458 Playa de, Illes Balears, Spain"
469,Grupotel Parc Natural & Spa,5.0,39.799419,3.1199367,"Ctra. Artà-Alcúdia, s/n, 07458 Playas de Muro, Illes Balears, Spain"
470,BG Tonga Tower Design Hotel & Suites,5.0,39.7630729,3.1490938,"Ctra. Artà-Alcúdia, s/n, 07458 Can Picafort, Illes Balears, Spain"
471,Hotel Seasun Siurell,3.0,39.6026909,3.380704,"Carrer de la Dàlia, 10, 07560 Son Servera, Illes Balears, Spain"
472,allsun Hotel Lago Playa Park,4.0,39.7061608,3.4555218,"Carrer Tritón, s/n, 07590 Cala Rajada, Illes Balears, Spain"
473,Playa Garden Selection Hotel & Spa,4.0,39.7902109,3.124822500000001,"Av. Platges de Muro, Km. 25, 9, 07458 Muro, Illes Balears, Spain"
474,More,3.0,39.6952629,3.0175712,"Majorca, Balearic Islands, Spain"
475,Posada de's Moli,4.0,39.6952629,3.0175712,"Majorca, Balearic Islands, Spain"
476,Morlans Suites,2.0,39.5391399,2.4546779,"Carrer des Capdellà, nº 12, 07160 Peguera, Illes Balears, Spain"
477,Petit Hotel Rural Son Jordà - Hotel Rural Restaurant,5.0,39.6225462,2.9377702,"Carrer Ruberts, 5, 07511 Ruberts, Illes Balears, Spain"
478,Plaza Santa Ponsa Boutique Hotel,4.0,39.51590789999999,2.4797401,"Platja de Santa Ponça, Gran Via Puig de Galatzó, 1, 07180 Santa Ponça, Illes Balears, Spain"
479,D'Or Hotel,2.0,39.37497380000001,3.2271415,"Av. de Calonge, 07660 Cala D'or, Illes Balears, Spain"
480,Eurostars Marivent,3.0,39.5525948,2.6111218,"Carrer de Dina Moore, 6, Ponent, 07015 Palma, Illes Balears, Spain"
481,Flamboyan Caribe,4.0,39.5100326,2.5401413,"Carrer Martín Ros García, 16, 07182 Magaluf, Illes Balears, Spain"
482,Tropico Playa Hotel,3.0,39.5208772,2.5366288,"Passeig Mar, 38, 07181 Palmanova, Illes Balears, Spain"
483,Oberoy Hotel,4.0,39.5368866,2.4591399,"Carrer dels Ametllers, 5, 07160 Peguera, Illes Balears, Spain"
484,Paguera Treff Boutique Hotel,4.0,39.5377952,2.4493172,"Bulevar de Peguera, 31, 07160 Peguera, Illes Balears, Spain"
485,Leonardo Royal Hotel Mallorca,4.0,39.5123596,2.5417025,"Carrer Torrenova, 1, 07181 Palmanova, Illes Balears, Spain"
486,Embat,2.0,39.8949432,3.07833,"Passeig de Londres, 07470 Pollença, Illes Balears, Spain"
487,BlueSea Don Jaime,3.0,39.605784,3.386163,"Carrer de sa Jordana, 20, 07560 Cala Millor, Illes Balears, Spain"
488,Atalaya Bosque,2.0,39.5398697,2.4438988,"Carrer del Bosc, 18, 07160 Peguera, Illes Balears, Spain"
489,Hotel Teide,2.0,39.5080951,2.7531705,"Carrer de Bartomeu Calafell, 8, Platja de Palma, 07600 Palma, Illes Balears, Spain"
490,BQ Augusta Hotel,4.0,39.5562513,2.6214412,"Camí del Corb Marí, 22, Ponent, 07015 Palma, Illes Balears, Spain"
491,Agroturisme Perola,3.0,39.499709,2.957844,"Ma-5020, km 5,5, 07609, Illes Balears, Spain"
492,Hotel Amic Horizonte,3.0,39.5555529,2.6215965,"Carrer de Vista Alegre, 1, Ponent, 07015 Palma, Illes Balears, Spain"
493,Blau Colonia Sant Jordi Resort & Spa,4.0,39.32187950000001,2.9951229,"Camí de Sa Síquia 3, 3, 07638 Colònia de Sant Jordi, Illes Balears, Spain"
494,Inturotel Azul Garden,3.0,39.3785352,3.2367649,"Carrer de s'Espalmador, S/N, 07660 Cala D'or, Illes Balears, Spain"
495,Hotel Vistamar Portocolom,4.0,39.4148161,3.2620319,"Rda. Miquel Massutí Alzamora, 0, 07670 Portocolom, Illes Balears, Spain"
496,Hotel La Concha Soul,2.0,39.538447,2.455966,"Carrer Romana, 3, 07160 Peguera, Illes Balears, Spain"
497,Hotel Millor Sol,3.0,39.6060984,3.3807347,"Av. Joan Servera Camps, 07560 Cala Millor, Illes Balears, Spain"
498,Prinsotel La Dorada,4.0,39.80420950000001,3.1163225,"Carrer Romaní, s/n, 07458 Playa de Muro, Illes Balears, Spain"
499,Virrey Finca Hotel,4.0,39.6895122,2.9143174,"km 2,4, Carretera Inca- Sencelles, 07300 Inca, Illes Balears, Spain"
500,Bendinat,4.0,39.5348383,2.5791129,"07181 Bendinat, Balearic Islands, Spain"
501,Apartamentos Europa,2.0,39.5748466,3.373162,"Carrer Dàlies, 30, 07560 Sa Coma, Illes Balears, Spain"
502,Hotel Costa Mediterraneo,2.0,39.49744159999999,2.7558609,"C/ Girona, 11, 07600 El Arenal, Illes Balears, Spain"
503,Meliá Cala d'Or Boutique Hotel,5.0,39.377933,3.23178,"Carrer de Portinatx, 16-18, 07660 Mallorca, Illes Balears, Spain"
504,Atolon,3.0,39.6952629,3.0175712,"Majorca, Balearic Islands, Spain"
505,Pula Golf Resort,4.0,39.6456331,3.3760629,"Predio de Pula, Ma-4040, s/n, km 2,3, 07550 Son Servera, Illes Balears, Spain"
506,Casal Santa Eulalia,4.0,39.7540791,3.1326808,"Ctra. Santa Margalida-Alcúdia, km 2, 07458 Muro, Illes Balears, Spain"
507,Finca Can Quatre,4.0,39.7731285,2.7130858,"Camí de la Villalonga, 16, 07100 Sóller, Illes Balears, Spain"
508,Hotel Agua Beach,4.0,39.523087,2.5380915,"Passeig Mar, 24, 07181 Palmanova, Illes Balears, Spain"
509,Hotel Panorama,2.0,39.6952629,3.0175712,"Majorca, Balearic Islands, Spain"
510,JS Can Picafort,3.0,39.7677771,3.1520459,"Via Alemanya, 2, 07458 Can Picafort, Illes Balears, Spain"
511,Universal Hotel Perla,4.0,39.5654067,3.3722598,"Carrer Murta, s/n, 07687 S'Illot, Illes Balears, Spain"
512,JS Paradise Sport,3.0,39.4992695,2.7525716,"Calle de San Bartolomé, 10, 07600 El Arenal, Illes Balears, Spain"
513,Hotel Amic Miraflores,3.0,39.5360038,2.719394,"Carrer del Xabec, 4, Platja de Palma, 07610 Palma, Illes Balears, Spain"
514,Castillo Hotel Son Vida,5.0,39.5917983,2.5959141,"Carrer Raixa, 2, Urbanizacion, Ponent, 07013 Son Vida, Illes Balears, Spain"
515,Hipotels Hipocampo Palace & Spa,5.0,39.5898303,3.3820497,"Carrer Estanyol, 13, 07560 Cala Millor, Illes Balears, Spain"
516,Hipotels Bahía Cala Millor,4.0,39.5870915,3.3851404,"Carrer Castell, 3, 07560 Cala Millor, Illes Balears, Spain"
517,Hipotels Mediterráneo Club,4.0,39.57420279999999,3.374794,"Avinguda de les Savines, s/n, 07560 Sa Coma, Illes Balears, Spain"
518,La Reserva Rotana,5.0,39.60632400000001,3.1841573,"Camí de Bendrís, 3, 07500 Manacor, Illes Balears, Spain"
519,Grupotel Mallorca Mar,4.0,39.6222263,3.3918408,"Passeig del, Passeig Del Pintor Miquel Vives, s/n, 07559 Cala Bona, Illes Balears, Spain"
520,Canyamel Classic,4.0,39.6555699,3.4389124,"Via Melesigeni, 32, 07589 Canyamel, Illes Balears, Spain"
521,Hotel Playa,3.0,39.5331809,2.7242599,"Carrer de la Pollacra, 1, Platja de Palma, 07610 Can Pastilla, Illes Balears, Spain"
522,ALEGRIA Alzinar Mar Suites,4.0,39.5684762,2.6458615,"Carrer de la Mar, 11, Centre, 07012 Palma, Illes Balears, Spain"
523,Finca Monnàber Vell,4.0,39.78911189999999,2.9480299,"Camí Blanc, 07310 Campanet, Illes Balears, Spain"
524,Son Marge,4.0,39.3695599,3.0244913,"Ctra. Campos, km 6, 3, 07630, Illes Balears, Spain"
525,Hotel Can Moragues Healthy & Wellness,4.0,39.695458,3.3507374,"Carrer del Pou Nou, 12, 07570 Artà, Illes Balears, Spain"
526,JS Horitzó,3.0,39.76772589999999,3.1524676,"Via Alemanya, 1, 07458 Can Picafort, Illes Balears, Spain"
527,Green Garden Aparthotel,4.0,39.7154093,3.4567195,"Carrer Castellet, 59, 07590 Cala Rajada, Illes Balears, Spain"
528,Nixe Palace,5.0,39.5526657,2.6076126,"Avinguda de Joan Miró, 269, Ponent, 07015 Palma, Illes Balears, Spain"
529,Finca Son Menut,3.0,39.4483889,3.1073822,"Agrupació Son Tauler, 8, 07208 Felanitx, Illes Balears, Spain"
530,Finca es Rafal,3.0,39.6607098,3.3660865,"Finca Es Rafal, 07550 Son Servera, Illes Balears, Spain"
531,Finca Hotel Rural Es Turó,4.0,39.353706,3.0780586,"Carrer Cas Perets, 07640 Ses Salines, Illes Balears, Spain"
532,Hesperia Ciudad de Mallorca,4.0,39.5558972,2.6209251,"C/ de Francesc Vidal i Sureda, 24, Ponent, 07015 Palma, Illes Balears, Spain"
533,Universal Hotel Romantica,3.0,39.32237860000001,2.9858113,"Carrer Caravel·la, 4, 07638 Colònia de Sant Jordi, Illes Balears, Spain"
534,Sallés Hotel Marina Portals,4.0,39.5361711,2.5703673,"Sallès Hotels Marina Portals, Ctra. Andratx, s/n, 07181 Portals Nous, Illes Balears, Spain"
535,Pula Suites Boutique Resort,5.0,39.64564290000001,3.3757715,"Predio de Pula, Ma-4040, s/n, km 2,3, 07550 Son Servera, Illes Balears, Spain"
536,Costa Azul,4.0,39.5687817,2.6322629,"Av. de Gabriel Roca, 7, Ponent, 07014 Palma, Illes Balears, Spain"
537,Possessió Binicomprat,4.0,39.5615045,2.9142502,"cami de ses vinyes, 07210 Algaida, Illes Balears, Spain"
538,Bakour Garbi Cala Millor,4.0,39.5917468,3.3779185,"Carrer Cristòfol Colom, 146, 07560 Cala Millor, Illes Balears, Spain"
539,Dunes Platja,4.0,39.7715533,3.1458914,"Passeig Colón, 138, 07458 Can Picafort, Illes Balears, Spain"
540,S'Antigor Petit Hotel,3.0,39.3941751,3.2356168,"96VP+M6, 07669 Cala Ferrera, Balearic Islands, Spain"
541,Club del Sol Aparthotel,4.0,39.8796028,3.0796722,"Ctra, km 62, 3, 07470 Port de Pollença, Illes Balears, Spain"
542,Bluewater Hotel,3.0,39.3196869,2.9956739,"Passeig de la Rosa, 14, 07638 Colònia de Sant Jordi, Illes Balears, Spain"
543,CM Mallorca Palace,5.0,39.571414,3.372823,"Avinguda de les Savines, 148, 07560 Sa Coma, Illes Balears, Spain"
544,Duva Aparthotel & Spa,4.0,39.903515,3.0668782,"Carrer Cap Roig, Ctra. Palma a Puerto Pollença, 5, KM.58, 07470 Port de Pollença, Illes Balears, Spain"
545,Saratoga,4.0,39.5719404,2.6422834,"Pg. de Mallorca, 6, Centre, 07012 Palma, Illes Balears, Spain"
546,allsun Hotel Illot Park,5.0,39.7167634,3.4633662,"Carrer Monturiol, 45, 07580 Cala Lliteres, Illes Balears, Spain"
547,Sa Bassa Rotja Ecoturisme,4.0,39.4936535,3.0450253,"Finca Son Orell, Camí de sa Pedrera, s/n, 07260, Illes Balears, Spain"
548,Alcudia Garden Aparthotel,3.0,39.84248849999999,3.1283339,"Avinguda de la Platja, 1, 07400 Alcúdia, Illes Balears, Spain"
549,Steigenberger Hotel & Resort Camp de Mar,5.0,39.5407153,2.4252533,"Carrer Taula, 2, 07160 Camp de Mar, Illes Balears, Spain"
550,Es Puig de Ros d'Alt,4.0,39.4500328,2.7514831,"07609 Puigderrós, Illes Balears, Spain"
551,Catalonia Del Mar,4.0,39.6150055,3.3915508,"Polígon del Moll, 15, 07550 Cala Bona, Illes Balears, Spain"
552,Globales Palmanova Palace,4.0,39.5241394,2.5350305,"Carrer Miquel Sants Oliver, 15, 07181 Palmanova, Illes Balears, Spain"
553,Houm Plaza Son Rigo,3.0,39.5221425,2.7408603,"Carrer de Villagarcia de Arosa, 8, Platja de Palma, 07610 Palma, Illes Balears, Spain"
554,Protur Badía Park Aparthotel,4.0,39.579362,3.37458,"Avinguda de ses Palmeres, 6, 07560 Sa Coma, Illes Balears, Spain"
555,Lago Garden Hotel & Spa,5.0,39.7094443,3.4546957,"Carrer Bon Passeig, 17, 07590 Cala Rajada, Illes Balears, Spain"
556,Hacienda Son Antem,5.0,39.47484559999999,2.8275608,"Hotel Son Antem, Ma-19, Salida 20, 07620, Illes Balears, Spain"
557,Alcudiamar Botel,4.0,39.8532672,3.1240239,"07400 Alcúdia, Balearic Islands, Spain"
558,Be Live Collection Palace de Muro,5.0,39.7979633,3.1212803,"Ctra. Alcudia Arta, s/n, Km. 1, 07458 Alcúdia, Illes Balears, Spain"
559,Universal Hotel Aquamarin,4.0,39.5773213,2.3543665,"Carrer Cala es Conills, 4, 07159 Sant Elm, Illes Balears, Spain"
560,Zafiro Can Picafort,4.0,39.7633829,3.1462057,"Carrer Camp d'Avall, s/n, 07458 Can Picafort, Illes Balears, Spain"
561,Finca Son Pieras,5.0,39.4949269,2.8588737,"Lugar Poligono 42, 371, 07620, Illes Balears, Spain"
562,Hotel Rural S'Olivaret,4.0,39.7343974,2.8032452,"Carretera Alaró-Orient, KM 3, 07340 Alaró, Majorca, 07349 Alaró, Illes Balears, Spain"
563,BLUESEA Es Bolero,3.0,39.3640957,3.2267636,"Carrer d'es Parc de la Mar, 6, 07660 Cala D'or, Illes Balears, Spain"
564,Universal Casa Marquesa,3.0,39.3242153,2.9876489,"Av. Primavera, s/n, 07638 Colònia de Sant Jordi, Illes Balears, Spain"
565,allsun App.-Hotel Orient Beach,5.0,39.6952629,3.0175712,"Majorca, Balearic Islands, Spain"
566,Fergus Barracuda,3.0,39.6952629,3.0175712,"Majorca, Balearic Islands, Spain"
567,Hotel Bordoy Don Antonio,4.0,39.5397319,2.4467704,"07160 Peguera, Balearic Islands, Spain"
568,Valentin Park Club Hotel & Apartments,3.0,39.540957,2.446616,"Carrer Eucaliptus, 20, 07160 Peguera, Illes Balears, Spain"
569,Fenix Hotel,3.0,39.497919,2.7550318,"Carrer Marquès de la Romana, 1, 07600 El Arenal, Illes Balears, Spain"
570,Lindner Golf Resort Portals Nous,4.0,39.5404582,2.5842643,"C/ Arquitecto Francisco Casas, 18, 07181 Portals Nous, Illes Balears, Spain"
571,Son Siurana,4.0,39.8147927,3.0495149,"Km.42,8 Carretera de Palma a • Alcúdia Islas Baleares ES, 07400 Alcúdia, Illes Balears, Spain"
572,H10 Casa del Mar,3.0,39.5171772,2.4813304,"Carrer Gran Via Puig Major, 2, 07180 Santa Ponça, Illes Balears, Spain"
573,BQ Aguamarina Boutique Hotel,4.0,39.5346633,2.7140498,"Carrer de Sant Antoni de la Platja, 41, Platja de Palma, 07610 Palma, Illes Balears, Spain"
574,Ca'n Canals,3.0,39.3780556,2.9830556,"Carretera Campos sa Rapita, 07639, Illes Balears, Spain"
575,Globales Panama,4.0,39.5196083,2.5330287,"Carrer de París, 4, 07181 Palmanova, Illes Balears, Spain"
576,VIVA Blue & Spa,4.0,39.8073549,3.1159414,"Carrer Passeig de Bateman, s/n, 07458 Playa de Muro, Illes Balears, Spain"
577,Dalt Muntanya,3.0,39.7344255,2.7604887,"Ctra Bunyola, km 10, 07349 Orient, Illes Balears, Spain"
578,Grupotel Natura Playa,4.0,39.7990188,3.1210024,"Av. Platges de Muro, 5, 07458 Muro, Illes Balears, Spain"
579,HM Mar Blau,4.0,39.5860217,3.3793673,"Carrer Gessamins, 1, 07560 Sa Coma, Illes Balears, Spain"
580,Universal Hotel Castell Royal,4.0,39.6580146,3.4410349,"Via Costa i Llobera, 1, 07589 Canyamel, Illes Balears, Spain"
581,Son Trobat Wellness & Spa,4.0,39.6015111,3.2613917,"07530 Sant Llorenç des Cardassar, Balearic Islands, Spain"
582,Son Sant Jordi,4.0,39.8793703,3.0177053,"Carrer de Sant Jordi, 29, 07460 Pollença, Illes Balears, Spain"
583,Club S'Illot,3.0,39.5698242,3.3719594,"07560 S'illot, Balearic Islands, Spain"
584,Nord,3.0,39.57265659999999,2.6568459,"Nord de Palma District, Balearic Islands, Spain"
585,Hotel Artmadams,4.0,39.5688553,2.6302716,"Carrer del Marquès de la Sènia, 34, Ponent, 07014 Palma, Illes Balears, Spain"
586,Hotel Mirador,4.0,39.5685467,2.6314472,"Pg. Marítim, 10, Ponent, 07014 Palma, Illes Balears, Spain"
587,Hotel Sa Galera,4.0,39.403511,3.127937,"Carretera, Km 6,3, 07208 Cas Concos des Cavaller, Illes Balears, Spain"
588,Palladium,3.0,39.575245,2.644799,"Pg. de Mallorca, 40, Centre, 07012 Palma, Illes Balears, Spain"
589,Hotel HM Jaime III,4.0,39.5730148,2.6426496,"Pg. de Mallorca, 14, B, Centre, 07012 Palma, Illes Balears, Spain"
590,Valentin Park Apartments,3.0,39.540957,2.446616,"Carrer Eucaliptus, 20, 07160 Peguera, Illes Balears, Spain"
591,Cala Millor Garden Hotel,4.0,39.5938563,3.3806719,"Carrer Cristòfol Colom, 71, 07560 Cala Millor, Illes Balears, Spain"
592,Mon Port Hotel & Spa,4.0,39.5492172,2.3807964,"Finca La Noria, Carrer Cala d'Egos, 17, 07157 Port d'Andratx, Illes Balears, Spain"
593,Finca Hotel Son Palou,4.0,39.7344398,2.7593133,"Plaça Església d'Orient, 07349 Orient, Illes Balears, Spain"
594,Ca'l Bisbe,4.0,39.7612678,2.711348,"Carrer d'Isabel II, 144, 07100 Sóller, Illes Balears, Spain"
595,Pure Salt Port Adriano,5.0,39.4925509,2.4801195,"Carretera Magaluf - S. Ponsa km. 10, 07182 El Toro, Calviá, Mallorca, Islas Baleares, Illes Balears, Spain"
596,The St. Regis Mardavall Mallorca Resort ,5.0,39.528159,2.550929,"Ma-1, 19, 07181 Costa d'en Blanes, Illes Balears, Spain"
597,Son Cleda,5.0,39.6431583,3.0114435,"Es Fossar, 7, 07510 Sineu, Illes Balears, Spain"
598,Sa Rota d'en Palerm,4.0,39.57452079999999,2.6444798,"Pg. de Mallorca, 34, Centre, 07012 Palma, Illes Balears, Spain"
599,Be Live Adults Only La Cala Boutique,4.0,39.5527605,2.6057821,"Carrer Gavina, 4, Ponent, 07015 Palma, Illes Balears, Spain"
600,Vell Marí Hotel & Resort,4.0,39.75694439999999,3.1580556,"Ctra. Artà-Alcúdia, 127, 07458 Can Picafort, Illes Balears, Spain"
601,Araxa,3.0,39.5697136,2.6258267,"Carrer de Pilar Juncosa, 22, Ponent, 07014 Palma, Illes Balears, Spain"
602,Isla Mallorca Urban Hotel & Spa,4.0,39.5691681,2.6278384,"Carrer de Pilar Juncosa, 7, Ponent, 07014 Palma, Illes Balears, Spain"
603,Samos,3.0,39.5089615,2.5330919,"Avinguda de l'Olivera, 12, 07181 Magaluf, Illes Balears, Spain"
604,Alfabia Nou Agroturismo,4.0,39.7184885,2.6900041,"Carretera Palma, Km. 17, 07110 Sóller, Illes Balears, Spain"
605,Sa Taqueta de Fornalutx,4.0,39.7807764,2.7381949,"Carrer Sant Bernat, 4, 07109 Fornalutx, Illes Balears, Spain"
606,Na Forana,4.0,39.7027225,3.4538292,"Carrer de na Forana, 07590 Son Moll, Illes Balears, Spain"
607,Grupotel Playa de Palma Suites & Spa,4.0,39.5135866,2.754288,"Av. d'Amèrica, 7, Platja de Palma, 07600 Palma, Illes Balears, Spain"
608,Universal Hotel Marqués,4.0,39.3254606,2.9873871,"Plaça Molí de sa Sal, s/n, 07638 Colònia de Sant Jordi, Illes Balears, Spain"
609,Aparthotel Can Picafort Palace,4.0,39.7640353,3.1490615,"Ctra. Artà-Alcúdia, Km 22, 9, 07458 Can Picafort, Illes Balears, Spain"
610,Can Simó Alcudia,4.0,39.8522719,3.1219614,"Carrer de Sant Jaume, 1, 07400 Alcúdia, Illes Balears, Spain"
611,Globales Mimosa,4.0,39.5207361,2.5313085,"Av. de Cas Saboners, 28, 07181 Palmanova, Illes Balears, Spain"
612,INNSIDE Palma Bosque,4.0,39.56678,2.62597,"Carrer Camilo José Cela, 5, Ponent, 07014 Palma, Illes Balears, Spain"
613,Zafiro Mallorca,4.0,39.76708110000001,3.1427577,"Avinguda Santa Eulàlia, s/n, 07458 Can Picafort, Illes Balears, Spain"
614,Palma Bay Club Resort & Sahara-Nubia-Gobi Bay,3.0,39.5064267,2.755708400000001,"Carrer d'Amílcar, Platja de Palma, 07600 Palma, Illes Balears, Spain"
615,Aimia Hotel Port de Sóller,4.0,39.79611,2.697596,"Carrer Santa Maria del Cami, 1, 07108 Port de Sóller, Illes Balears, Spain"
616,Universal Hotel Lido Park & Spa,4.0,39.5339799,2.4590529,"Carrer José Guevara, 4, 07160 Peguera, Illes Balears, Spain"
617,Gran Hotel Soller,5.0,39.7676843,2.7143591,"Carrer de sa Romaguera, 18, 07100 Sóller, Illes Balears, Spain"
618,Convent de la Missió Art & Urban Live,5.0,39.6952629,3.0175712,"Majorca, Balearic Islands, Spain"
619,Palm Garden Apartments,2.0,39.8411211,3.1261089,"Avenida Reina Sofia, 1, 07400 Alcúdia, Illes Balears, Spain"
620,Occidental Cala Viñas,4.0,39.4943522,2.5338452,"Carrer del Coral, 2-4, 07181 Badia de Palma, Illes Balears, Spain"
621,Valentin Playa de Muro,3.0,39.7735443,3.1386418,"Ctra. Artà-Alcúdia, km 23, 3 Ma-12, 07458 Playa de Muro, Mallorca, Illes Balears, Spain"
622,BelleVue Vistanova,3.0,39.5112214,2.5402597,"Carrer Bergantí, 2, 07181 Palmanova, Illes Balears, Spain"
623,tent Palmanova,3.0,39.5190101,2.5333395,"Carrer de París, 1, 07181 Calvià, Illes Balears, Spain"
624,Petit Caimari,3.0,39.7715347,2.9025954,"Carrer de s'Horitzó, 14, 07314 Caimari, Illes Balears, Spain"
625,Puro Hotel Palma,4.0,39.5694784,2.6451862,"Carrer de Montenegro, 10, Centre, 07012 Palma, Illes Balears, Spain"
626,Petit Palace Tres,4.0,39.5689865,2.6455343,"Carrer dels Apuntadors, 3, Centre, 07012 Palma, Illes Balears, Spain"
627,AC Hotel Ciutat de Palma,4.0,39.5703703,2.633185,"Plaça del Pont, 3, Ponent, 07014 Palma, Illes Balears, Spain"
628,Hotel Joan Miró Museum,4.0,39.5534347,2.610638,"Carrer de Bartomeu Fons, 8, Ponent, 07015 Palma, Illes Balears, Spain"
629,Hotel Hospes Maricel & Spa,5.0,39.54728,2.5963777,"Ctra. Andratx, 11, 07181 Palma, Illes Balears, Spain"
630,Carabela II Appertments,5.0,39.5378001,2.4486332,"Carrer Eucaliptus, 4, 07160 Peguera, Illes Balears, Spain"
631,Ikos Porto Petro,5.0,39.3589855,3.2102877,"Carrer d'es Far, 16, 07691 Portopetro, Illes Balears, Spain"
632,Apartamentos Vista Alegre,5.0,39.5226085,3.3161863,"Carrer Marco Polo, 45, 07680 Cala Anguila-Cala Mendia, Illes Balears, Spain"
633,Aparthotel Club Simó,3.0,39.602476,3.3790348,"Carrer Almendros, 24, 07560 Cala Millor, Illes Balears, Spain"
634,Hoposa Costa d'Or,4.0,39.7648004,2.6535713,"Carrer Lluc Alcari, s/n, 07179 Llucalcari, Illes Balears, Spain"
635,VIVA Cala Mesquida Resort & Spa,4.0,39.7442807,3.4300112,"Calle Marina, número 32, 07580 Cala Mesquida, Illes Balears, Spain"
636,VIVA Cala Mesquida Suites & Spa Adults only 16+,5.0,39.74256889999999,3.4286327,"Calle Marina, número 22, 07580 Cala Mesquida, Illes Balears, Spain"
637,Hotel Mix Perú Playa,2.0,39.5218894,2.7463197,"Carrer de la Mar d'Aral, 12, BAJO, Platja de Palma, 07610 Platja de Palma, Illes Balears, Spain"
638,Na Martina,5.0,39.3340096,3.1477632,"Na Martina, 07659 Santanyí, Illes Balears, Spain"
639,Finca Son Roig,4.0,39.5276496,3.0702313,"Camí de Sa Torre, S/N, 07260, Illes Balears, Spain"
640,Hotel Can Simoneta,5.0,39.6520042,3.4377446,"Finca Torre Canyamel, Carretera Arta-Canyamel, km 8, 07580 Canyamel, Illes Balears, Spain"
641,Sant Salvador,5.0,39.4555309,3.1858444,"Crta. de, Ctra. Porto Colom, s/n, 07200 Felanitx, Illes Balears, Spain"
642,MarSenses Rosa del Mar Hotel & Spa,4.0,39.5126815,2.536697,"Av. de Cas Saboners, 3, 07181 Palmanova, Illes Balears, Spain"
643,Sol Cala d'Or Apartamentos,3.0,39.376283,3.232589,"Carrer dels Ravells, 07660 Cala D'or, Illes Balears, Spain"
644,MLL Blue Bay,3.0,39.55221220000001,2.5983869,"CAMINO VECINAL GENOVA, 30, Ponent, 07015 Palma, Illes Balears, Spain"
645,Apartamentos Villa Real,2.0,39.539069,2.4222529,"Avda Gabriel Covas Alemany 10, 07160 Camp de Mar, Illes Balears, Spain"
646,Amic Can Pastilla,2.0,39.5360527,2.7200058,"Carrer de l'Oratge, 4, Platja de Palma, 07610 Can Pastilla, Illes Balears, Spain"
647,Hotel Amic Gala,3.0,39.53632289999999,2.719088600000001,"Carrer del Xabec, 5, Platja de Palma, 07610 Can Pastilla, Illes Balears, Spain"
648,PortBlue Club Pollentia Resort & Spa,4.0,39.8635939,3.0932989,"Ctra. Alcúdia, Km 2, 07400, Illes Balears, Spain"
649,Chevy Hotel & Hostal Montesol,5.0,39.7132186,3.4650137,"Carrer Reis Catòlics, 11, 07590 Cala Rajada, Illes Balears, Spain"
650,BLUESEA Club Marthas,4.0,39.363387,3.2278082,"Carrer d'es Parc de la Mar, 6, 07660 Cala D'or, Illes Balears, Spain"
651,Ipanema Park & Beach,3.0,39.497857,2.7539704,"Carrer Antoni Maria Alcover, 11, 07600 Llucmajor, Illes Balears, Spain"
652,Isla de Cabrera Hotel,3.0,39.3194963,2.9980455,"C, Av. Marquès del Palmer, 07638 Colònia de Sant Jordi, Illes Balears, Spain"
653,Son Penya Petit,3.0,39.5961685,3.2903807,"Camino de, finca Son Penya, Son Berga Vell, 07530 Sant Llorenç des Cardassar, Illes Balears, Spain"
654,Hotel Sercotel Zurbarán ,3.0,39.5645841,2.6244129,"Carrer de Josep Villalonga, 16, Ponent, 07014 Palma, Illes Balears, Spain"
655,Iberostar Selection Playa de Muro Village,5.0,39.8054982,3.1177137,"Av. de s'Albufera, 6, 07458 Playa de Muro, Mallorca, Illes Balears, Spain"
656,Mar Hotels Playa de Muro Suites,4.0,39.8032468,3.1169802,"Carrer Falcó, 07458 Playa de Muro, Mallorca, Illes Balears, Spain"
657,Hotel Illot Suites & Spa,4.0,39.715466,3.460817,"Carrer Hernán Cortés, 41, 07590 Cala Rajada, Illes Balears, Spain"
658,Hotel Club Palia Dolce Farniente,3.0,39.3626666,3.2250715,"Av. de Cala Egos, S/N, 07660 Cala D'or, Illes Balears, Spain"
659,Globales Apartotel Bouganvilla,3.0,39.5784947,3.3625302,"Calle Margaritas, 21, 07560 Sa Coma, Illes Balears, Spain"
660,Apartamentos Casa Vida,3.0,39.5133196,2.4815174,"Carrer Gran Via Rei Sanxo, 10, 07180 Santa Ponça, Illes Balears, Spain"
661,Martha´s Imagine Suite,3.0,39.6952629,3.0175712,"Majorca, Balearic Islands, Spain"
662,Club Mac Alcudia,3.0,39.8400497,3.1127796,"Av. Tucà, s/n, 07410 Alcúdia, Illes Balears, Spain"
663,Reverence Mare Hotel,5.0,39.5201124,2.535385,"Carrer Germans Moncada, 17, 07181 Palmanova, Illes Balears, Spain"
664,Pierre & Vacances Apartamentos Mallorca Deya,3.0,39.5194482,2.4817533,"Carrer de Ramon de Montcada, 27, 07180 Santa Ponça, Illes Balears, Spain"
665,Hotel Club Palia Maria Eugenia,4.0,39.4619924,3.2797578,"Carrer de Cala Romeguera, s/n, 07689 Cales de Mallorca, Illes Balears, Spain"
666,HSM Don Juan,3.0,39.503476,2.528988,"de la Barca, Carrer Calderón, 4, 07181 Magaluf, Illes Balears, Spain"
667,Hotel Florida Magaluf,4.0,39.5090429,2.542994600000001,"Carrer Torrenova, 33, 07181 Magaluf, Illes Balears, Spain"
668,HM Martinique,4.0,39.5036542,2.5298291,"Carrer Tirso de Molina, 1, 07181 Magaluf, Illes Balears, Spain"
669,Fergus Club Palmanova Park,4.0,39.5273476,2.5418056,"Carrer Voranova, 6, 07181 Palmanova, Illes Balears, Spain"
670,THB Bamboo Alcudia,4.0,39.8315875,3.1158451,"Av. Pere Mas i Reus, 3A, 07400 Port d'Alcúdia, Illes Balears, Spain"
671,Hotel Santa Ponsa Pins,3.0,39.5175245,2.4869335,"Avinguda del Rei Jaume I, 115, 07180 Santa Ponça, Illes Balears, Spain"
672,Palmanova Beach Apartments by TRH,4.0,39.518908,2.5341274,"Carrer de París, 2, 07181 Palmanova, Illes Balears, Spain"
673,La Vila,4.0,39.7666193,2.7154231,"Plaça de sa Constitució, 14, 07100 Sóller, Illes Balears, Spain"
674,Golf Beach,2.0,39.6952629,3.0175712,"Majorca, Balearic Islands, Spain"
675,Almudaina,5.0,39.5681846,2.6480881,"La Seu, Centre, 07001 Palma, Illes Balears, Spain"
676,Bordoy Continental Palma,4.0,39.573894,2.6397707,"Carrer de la Indústria, 10, 07013 Palma, Illes Balears, Spain"
677,Hotel BG Pamplona,4.0,39.526672,2.736275,"Carrer de Neopàtria, s/n, Platja de Palma, 07610 Palma, Illes Balears, Spain"
678,Son Julia Country House,5.0,39.4838732,2.8689963,"Crta. De S'Arenal a Llucmajor, s/n, 07620 Llucmajor, Islas Baleares, Illes Balears, Spain"
679,HSM Sandalo Beach,3.0,39.509068,2.542083,"Carrer Torrenova, 37, 07182 Magaluf, Illes Balears, Spain"
680,Dreams Calviá Mallorca,4.0,39.5023145,2.5330847,"Av. Notari Alemany, 34, 07181 Calvià, Illes Balears, Spain"
681,HSM Atlantic Park,4.0,39.5040312,2.528237,"C/ Calderón de la Barca, 2, 07181 Magaluf, Illes Balears, Spain"
682,Inturotel Esmeralda Garden,3.0,39.3771515,3.2330047,"Carrer de Portinatx, 27, 07660 Cala D'or, Illes Balears, Spain"
683,M House Hotel,4.0,39.5740751,2.6518188,"Carrer de Can Maçanet, 1A, Centre, 07003 Palma, Illes Balears, Spain"
684,AluaSoul Mallorca Resort,4.0,39.3618746,3.2247059,"Av. de Cala Egos, s/n, 07660 Cala D'or, Illes Balears, Spain"
685,Hotel Abelux,2.0,39.581832,2.6505548,"Carrer de Ramon Muntaner, 30, Nord, 07003 Palma, Illes Balears, Spain"
686,OLA Apartamentos Cala d' Or,3.0,39.3763046,3.231616,"Carrer dels Ravells, 17, 07660 Cala D'or, Illes Balears, Spain"
687,Aparthotel Aquasol,3.0,39.51746,2.533282,"Carrer dels Pinzons, 61, 07181 Palmanova, Illes Balears, Spain"
688,AluaSoul Alcudia Bay,4.0,39.8384639,3.1186159,"Carrer de la Gavina, 4, 07400 Port d'Alcúdia, Illes Balears, Spain"
689,Cabot Pollensa Park Spa,5.0,39.8970563,3.0767226,"Carrer del Bot, 5, 07470 Pollença, Illes Balears, Spain"
690,Globales Apartamentos Cala Viñas,3.0,39.4967747,2.5363573,"Calle Las Sirenas, 17, 07181 Cala Vinyes, Illes Balears, Spain"
691,MarSenses Puerto Pollensa Hotel & Spa,4.0,39.9100065,3.0852444,"Carrer de Formentor, 73, 07470 Pollença, Illes Balears, Spain"
692,Niu d'Aus Apartments,3.0,39.6952629,3.0175712,"Majorca, Balearic Islands, Spain"
693,Pirates Village Apartments,3.0,39.51666669999999,2.4861111,"Avinguda del Rei Jaume I, 114, 07180 Santa Ponça, Illes Balears, Spain"
694,Jutlandia Family Resort,3.0,39.5129008,2.485057,"Avinguda del Golf, 1, 07183 Santa Ponsa, Illes Balears, Spain"
695,Econotel Las Palomas,2.0,39.5181193,2.5354985,"Carrer Duc Estremera, 7, Local 1, 07181 Palmanova, Illes Balears, Spain"
696,Elba Sunset Mallorca,4.0,39.51021110000001,2.5449826,"Carrer Torrenova, 25 - 27, 07181 Palmanova, Illes Balears, Spain"
697,Palmanova Suites by TRH Hotel,4.0,39.5102404,2.5416839,"Carrer Martín Ros García, 15, 07181 Magaluf, Illes Balears, Spain"
698,FERGUS Bermudas,4.0,39.5181446,2.5340723,"Carrer dels Pinzons, 20, 07181 Palmanova, Illes Balears, Spain"
699,Hoposa Hotel Bahia,3.0,39.909662,3.085756,"Passeig Vora Mar, 29, 07470 Port de Pollença, Illes Balears, Spain"
700,Montelín,5.0,39.9005628,3.0771742,"Carrer del Palangre, 07470 Port de Pollença, Illes Balears, Spain"
701,Apartamentos Massol,2.0,39.9108698,3.0831165,"Carrer de Pere Melià, 7, 07470 Port de Pollença, Illes Balears, Spain"
702,Arcos Playa,5.0,39.5649232,3.3710709,"Plaça de la Savina, 07687 SILLOT, Illes Balears, Spain"
703,Globales Torrenova,3.0,39.5109157,2.5416857,"Carrer Sant Miquel de Liria, 6, 07181 Torrenova, Illes Balears, Spain"
704,Sol Lunamar Apartamentos,3.0,39.514685,2.535837,"Av. de Cas Saboners, 8, 07181 Calvià, Illes Balears, Spain"
705,Alua Palmanova Bay,4.0,39.5211147,2.5390454,"Palma Nova, Balearic Islands, Spain"
706,Apartamentos Marina - Palmanova,2.0,39.5206813,2.5361861,"Carrer Germans Moncada, 11, 07181 Palmanova, Illes Balears, Spain"
707,Apartamentos Don Miguel,2.0,39.8975928,3.0759607,"Carrer del Corb Marí, 4, 07470 Port de Pollença, Illes Balears, Spain"
708,Globales Costa de la Calma,3.0,39.5239334,2.4746005,"Carrer de's Centre, 4, 07183 Costa de la Calma, Illes Balears, Spain"
709,Mac Surfing Playa,5.0,39.5126179,2.4746385,"Avinguda del Rei Jaume I, 83, 07183 Santa Ponça, Illes Balears, Spain"
710,Apartamentos Siesta 1,5.0,39.8305619,3.1064645,"Av. Pere Mas i Reus, 23, 07400 Alcúdia, Illes Balears, Spain"
711,Hotel Ilusion Calma & Spa,3.0,39.53624,2.7159861,"Carrer d'Horaci, 5, Platja de Palma, 07610 Can Pastilla, Illes Balears, Spain"
712,Aparthotel Ona Cala Pi Club,3.0,39.3634063,2.8369584,"Carrer Torre, 2, 07639 Cala Pi, Illes Balears, Spain"
713,Nautic Hotel & Spa,4.0,39.5350385,2.7152616,"Carrer de Virgili, 24, Platja de Palma, 07610 Can Pastilla, Illes Balears, Spain"
714,Globales Palmanova,4.0,39.524696,2.5361104,"Carrer Miquel Sants Oliver, 13, 07181 Palmanova, Illes Balears, Spain"
715,Mix BR (Bahía Real) Apartments,3.0,39.6952629,3.0175712,"Majorca, Balearic Islands, Spain"
716,Hoposa Apartments Pollensamar,3.0,39.9109837,3.0935609,"Carrer del Far, 13, 07470 Port de Pollença, Illes Balears, Spain"
717,Universal Hotel Laguna,4.0,39.6569983,3.4403751,"Via Costa i Llobera, 5, 07589 Canyamel, Illes Balears, Spain"
718,Santa Clara Urban Hotel & Spa,4.0,39.5668394,2.6522388,"Carrer de Sant Alonso, 16, Centre, 07001 Palma, Illes Balears, Spain"
719,Zoëtry Mallorca,5.0,39.437846,2.7998876,"Camí de Sa Torre, Km 8, 7, 07609, Illes Balears, Spain"
720,Zhero Palma,3.0,39.5515402,2.6009779,"Avinguda de Joan Miró, 305, Ponent, 07181 Palma, Illes Balears, Spain"
721,UR Palacio Avenida,4.0,39.5755363,2.6548667,"C/ del Marquès de la Fontsanta, 2, Llevant, 07005 Palma, Illes Balears, Spain"
722,Globales Verdemar Apartments,3.0,39.5192551,2.4758963,"Carrer de Ramon de Montcada, 14, 07180 Santa Ponça, Illes Balears, Spain"
723,Tacande Portals Wellness & Relax,4.0,39.5358877,2.5782799,"Carrer d'en Caldentei, 15, 07181 Bendinat, Illes Balears, Spain"
724,Isla del Sol,2.0,39.5374756,2.7142231,"Carrer dels Pins, 5, Platja de Palma, 07610 Can Pastilla, Illes Balears, Spain"
725,Apartamentos Inn,2.0,39.6952629,3.0175712,"Majorca, Balearic Islands, Spain"
726,Mar Brava,3.0,39.4828874,2.7367425,"07609 Cala Blava, Illes Balears, Spain"
727,Playas Ca's Saboners,3.0,39.514261,2.5351915,"Avda. Ca's Saboners nº 7, 07181 Palmanova, Illes Balears, Spain"
728,Hotel Bellavista & Spa,3.0,39.7130401,3.4622652,"Mestre Vicenç Nadal, 30, 07590 Cala Rajada, Illes Balears, Spain"
729,Hotel Las Arenas,4.0,39.535028,2.7166533,"C'an Pastilla, Carrer de Tit Livi, 14, Platja de Palma, 07610 Can Pastilla, Illes Balears, Spain"
730,Sol Romantica,3.0,39.5175164,3.3007529,"Avinguda Violetas, 326, 07689 Manacor, Illes Balears, Spain"
731,Sun Beach,2.0,39.5196401,2.4796555,"Carrer de Ramon de Montcada, 25, 07180 Santa Ponça, Illes Balears, Spain"
732,Es Blau Hotel Des Nord,4.0,39.5661205,2.6629141,"Carrer de Manuel Azaña, 38, Llevant, 07006 Palma, Illes Balears, Spain"
733,Vista Club,3.0,39.5204235,2.4766115,"Carrer de Nunyo Sanç, 20, 07180 Calvia (Mallorca, Illes Balears, Spain"
734,Holiday Park,2.0,39.5201493,2.4839288,"Carrer de Ramon de Montcada, 35, 07180 Santa Ponça, Illes Balears, Spain"
735,Playas del Rey,3.0,39.5127885,2.4778649,"Avinguda del Rei Jaume I, 76, 07180 Santa Ponça, Illes Balears, Spain"
736,Ca'n Bonico,4.0,39.3364837,3.0594972,"Carrer Bonico, 07640, Illes Balears, Spain"
737,Hostal HPC Portocolom,1.0,39.4200838,3.2613581,"Carrer d'En Cristòfor Colom, 5, 07670 Portocolom, Illes Balears, Spain"
738,Sol Calas de Mallorca,4.0,39.46523990000001,3.2754,"Cales de Mallorca, Illes Balears, Spain"
739,Sotavento,3.0,39.6952629,3.0175712,"Majorca, Balearic Islands, Spain"
740,Apartments Econotel Kensington ,1.0,39.6952629,3.0175712,"Majorca, Balearic Islands, Spain"
741,Oriola,2.0,39.6952629,3.0175712,"Majorca, Balearic Islands, Spain"
742,Hostal Blanca,1.0,39.7664402,3.1539918,"Passeig Colón, 79, 07458 Can Picafort, Illes Balears, Spain"
743,Universal Hotel Bikini,3.0,39.5988427,3.3836081,"Carrer Caravel·les, 07560 Cala Millor, Illes Balears, Spain"
744,Naika Studios & Apartments,2.0,39.5261907,2.5420561,"Carrer de Roses Bermejo, 12, 07181 Mallorca, Illes Balears, Spain"
745,Martinez Apartments,2.0,39.5269746,2.5401255,"Carrer Calvià, 3, 07181 Palmanova, Illes Balears, Spain"
746,Sa Franquesa Nova Hotel Rural,4.0,39.5444095,3.1383864,"Crta. Petra-Felanitx km4, Ma-5110, 07250 Villafranca de Bonany, Illes Balears, Spain"
747,Hoposa Villaconcha,4.0,39.9005279,3.0765748,"Carrer de la Nansa, 5, 07470 Port de Pollença, Illes Balears, Spain"
748,Finca Hotel Can Estades,3.0,39.5560214,2.4974053,"Son Estades, Camí de Son Pillo, 15, 07184 Calviá, Illes Balears, Spain"
749,Apartamentos Mallorca Portofino,3.0,39.513395,2.47948,"Avenida Jaime I, 86, 07180 Santa Ponça, Illes Balears, Spain"
750,Principal Son Amoixa,4.0,39.530685,3.2557719,"Carretera de Cales de Mallorca - Manacor, Km 3.4, 07500 Manacor, Illes Balears, Spain"
751,Puerto Azul Suite Hotel,4.0,39.910785,3.08373,"Carrer de Pere Melià, 4, 07470 Pollença, Illes Balears, Spain"
752,Africamar,3.0,39.767198,3.1471361,"Ctra. Artà-Alcúdia, 43, 07458 Can Picafort, Illes Balears, Spain"
753,Inturotel Sa Marina,4.0,39.3761089,3.2272953,"Av. de Calonge, s/n, 07660 Cala D'or, Illes Balears, Spain"
754,Valentin Paguera Hotel,3.0,39.5390399,2.453303,"Carrer Mallorca, 1, 07160 Peguera, Illes Balears, Spain"
755,Valentin Paguera Suites,3.0,39.5390399,2.453303,"Carrer Mallorca, 1, 07160 Peguera, Illes Balears, Spain"
756,Cabot Hobby Club Apartments,3.0,39.8940442,3.0779787,"Carrer del Roure, 1, 07470 Port de Pollença, Illes Balears, Spain"
757,Hotel Palia Sa Coma Playa,4.0,39.5704238,3.3741419,"Carrer Aritja, 1, 07687 Sa Coma, Illes Balears, Spain"
758,allsun App.-Hotel Estrella & Coral de Mar,5.0,39.6952629,3.0175712,"Majorca, Balearic Islands, Spain"
759,Cabot Las Velas Apartments,3.0,39.8963125,3.0730078,"Carrer del Falcó, 14, 07470 Port de Pollença, Illes Balears, Spain"
760,Hotel Alea,3.0,39.4976753,2.7543402,"Carrer Josep Maria Quadrado, 4, 07600 El Arenal, Illes Balears, Spain"
761,Don Pepe,3.0,39.6952629,3.0175712,"Majorca, Balearic Islands, Spain"
762,BH Mallorca Resort Affiliated by FERGUS,3.0,39.5007888,2.7541848,"Carrer Maria Antònia Salvà, 44, 07600 El Arenal, Illes Balears, Spain"
763,Mar Hotels Playa Mar & Spa,4.0,39.9108087,3.097792,"Carrer de Formentor, 119, 07470 Port de Pollença, Illes Balears, Spain"
764,Canyamel Sunrise Apartments,3.0,39.6559241,3.4377202,"Via dels Arquers, 45, 07589 Canyamel, Illes Balears, Spain"
765,Cap Rocat,5.0,39.4761095,2.7243017,"Ctra. d'enderrocat, s/n, 07609 Cala Blava-Llucmajor, Illes Balears, Spain"
766,Villa Singala,3.0,39.9113939,3.0924227,"Carrer del Far, 0, 07470 Port de Pollença, Illes Balears, Spain"
767,Globales Apartamentos Nova,3.0,39.5139994,2.5362914,"Av. de Cas Saboners, 6, 07181 Palmanova, Illes Balears, Spain"
768,Cala d'Or Playa,3.0,39.37434,3.2354867,"Av. Punta Grossa, 1, 07660 Cala D'or, Illes Balears, Spain"
769,Solecito Apartamentos,2.0,39.8384698,3.1123069,"Av del Tucán, 31, 07400 Port d'Alcúdia, Illes Balears, Spain"
770,Hostal Lido,1.0,39.6952629,3.0175712,"Majorca, Balearic Islands, Spain"
771,Sol de Alcudia Apartamentos,3.0,39.83286,3.1135112,"Carrer de la Tórtora, 07400 Port d'Alcúdia, Illes Balears, Spain"
772,Sant Salvador Hostatgeria,3.0,39.4554561,3.1863354,"Monasterio de Sant Salvador, Puig San Salvador, s/n, 07200 Felanitx, Illes Balears, Spain"
773,Marins Playa Suites,4.0,39.6075744,3.3878741,"Carrer na Llambies, 41, 07560 Cala Millor, Illes Balears, Spain"
774,Colon Palma,3.0,39.5703313,2.6509493,"Carrer de Colom, Centre, 07001 Palma, Illes Balears, Spain"
775,Can Cera,5.0,39.5687331,2.6515194,"Carrer de Sant Francesc, 8, Centre, 07001 Palma, Illes Balears, Spain"
776,Es Riquers,3.0,39.5118961,2.9950719,"Ctra, km 9,3, 07260 Llucmajor, Illes Balears, Spain"
777,Villa Palmer,3.0,39.53733030000001,2.4572733,"Carrer de les Gavines, 17, 07160 Peguera, Illes Balears, Spain"
778,Fontsanta Hotel Thermal Spa & Wellness,5.0,39.3541488,3.0152862,"Km 8, Ctra. Campos a sa Colònia de Sant Jordi, 07638 Campos, Illes Balears, Spain"
779,Jumeirah Port Soller Hotel & Spa,5.0,39.8023316,2.6958482,"Jumeirah, Hotel & Spa, Carrer de Bèlgica, S/N, 07108 Port de Sóller, Illes Balears, Spain"
780,Predi Son Jaumell Hotel Rural,5.0,39.7134424,3.4285088,"Cala Mesquida, Km 1, 07580 Capdepera, Illes Balears, Spain"
781,Hotel Diamant,4.0,39.7176945,3.4613524,"Carrer Los Romeros, 10, 07590 Cala Lliteres, Illes Balears, Spain"
782,La Santa Maria Hotel,3.0,39.5953117,3.3809781,"Avinguda, Carrer Cristòfol Colom, 104, 07560 Cala Millor, Illes Balears, Spain"
783,Mirador & Artmadams,4.0,39.5688553,2.6302716,"Carrer del Marquès de la Sènia, 34, Ponent, 07014 Palma, Illes Balears, Spain"
784,Mar Calma,4.0,39.90710199999999,3.082373,"Carrer de Formentor, 17, 07470 Port de Pollença, Illes Balears, Spain"
785,La Victoria Hostatgeria,3.0,39.87369,3.1711861,"Carrer Cap del Pinar, 6, 07400 Alcúdia, Illes Balears, Spain"
786,Can Vent Alcudia,4.0,39.8522712,3.1217787,"Carrer de Sant Jaume, 5, 07400 Alcúdia, Illes Balears, Spain"
787,Alcudia Petit,3.0,39.8521047,3.1223967,"Carrer d'En Serra, 23, 07400 Alcúdia, Illes Balears, Spain"
788,HM Balanguera,4.0,39.5797519,2.6418807,"Carrer de la Balanguera, 37, Ponent, 07011 Palma, Illes Balears, Spain"
789,Playa Esperanza Resort Affiliated by Melia,4.0,39.803686,3.1194,"Av. de s'Albufera, 4, 07458 Alcudia, Illes Balears, Spain"
790,Palma Suites,4.0,39.5726541,2.6568551,"Palma, Balearic Islands, Spain"
791,Calatrava Boutique,5.0,39.5658333,2.6536111,"Plaça de Llorenç Villalonga, 8, Centre, 07001 Palma, Illes Balears, Spain"
792,Sol Port Soller,2.0,39.78876,2.6953891,"Ctra. Port de Sóller, 44, 07108 Port de Sóller, Illes Balears, Spain"
793,Gavimar Ariel Chico Club & Resort,3.0,39.375576,3.2305391,"Carrer d'Ariel, 1, 07660 Cala D'or, Illes Balears, Spain"
794,Cort,4.0,39.5697209,2.6515017,"Cort, Centre, Palma, Illes Balears, Spain"
795,Castell Son Claret,5.0,39.5921735,2.4795839,"Carretera km 1.7 Calvià, 07196 · Mallorca, Illes Balears, Spain"
796,Hostal Cuba,4.0,39.5702062,2.6391515,"Carrer de Sant Magí, 1, Ponent, 07013 Palma, Illes Balears, Spain"
797,Hotel Coronado Thalasso & Spa,5.0,39.5308154,2.4377406,"Carretera de Cala Fornells, 80, 07160 Cala Fornells, Illes Balears, Spain"
798,Whala Beach,3.0,39.5028386,2.751983,"Av. Miramar, 1, 07600 El Arenal, Illes Balears, Spain"
799,Apartamentos Club Sa Coma,3.0,39.5770968,3.3741548,"Carrer Card, 9, 07560 Sa Coma, Illes Balears, Spain"
800,Ferrer Tamarindos Apartamentos,2.0,39.8372912,3.120089,"Cibeles, 1, 07400 Port d'Alcúdia, Illes Balears, Spain"
801,Son Moll Sentits Hotel & Spa,4.0,39.7062344,3.4566623,"Carrer Nereidas, 1, 07590 Cala Rajada, Illes Balears, Spain"
802,Hotel Brisa Marina,3.0,39.5682378,3.3735443,"Passeig Neptú, 15, 07560 S'Illot, Illes Balears, Spain"
803,Melbeach Hotel & Spa,3.0,39.6555529,3.4397644,"Via Costa i Llobera, 35, 07589 Canyamel, Illes Balears, Spain"
804,Trendhotel Alcudia,3.0,39.8335397,3.1152077,"Avinguda de Mèxic, 3, 07400 Alcúdia, Illes Balears, Spain"
805,Aparthotel Portodrach,4.0,39.53804969999999,3.3313658,"25, Passeig Cap d'es Toll, 07680 Porto Cristo, Illes Balears, Spain"
806,Ona Garden Lago,3.0,39.83684299999999,3.107948,"Calle Amsterdam, 3, Urbanización Lago Menor, 07400 Mallorca, Illes Balears, Spain"
807,Es Convent,5.0,39.4907274,2.8941377,"Carrer del Rei Jaume I, 07620 Llucmajor, Illes Balears, Spain"
808,Leonardo Boutique Hotel Mallorca Port Portals,4.0,39.5343812,2.5660423,"Av. Tomàs Blanes Tolosa, 4, 07181 Portals Nous, Illes Balears, Spain"
809,Son Cosmet,4.0,39.423664,2.997215,"Ctra. Campos-Sa Ràpita, 07630 Campos, Illes Balears, Spain"
810,Sa Cabana Hotel Rural & SPA,4.0,39.6748088,2.8256529,"Carretera Palma-Alcúdia Km 19,9, 07330 Consell, Illes Balears, Spain"
811,Jupiter Hotel,3.0,39.6952629,3.0175712,"Majorca, Balearic Islands, Spain"
812,Sis Pins,3.0,39.9087897,3.0846837,"Passeig d'Anglada Camarasa, 77, 07470 Port de Pollença, Illes Balears, Spain"
813,Cristina Apartamentos,2.0,39.6952629,3.0175712,"Majorca, Balearic Islands, Spain"
814,Apartamentos Llevant,5.0,39.9108268,3.0831043,"Carrer de Pere Melià, 11, 07470 Port de Pollença, Illes Balears, Spain"
815,Ona Aucanada Club Aparthotel,3.0,39.8377113,3.1514024,"Calle d'es Mirador, Carr. Alcanada, 11, 07400 Puerto de Alcudia, Illes Balears, Spain"
816,Ben Hur,3.0,39.5217208,2.7455617,"Carrer de la Mar Menor, 24, Platja de Palma, 07610 Palma, Illes Balears, Spain"
817,Nura Boreal,3.0,39.5227464,2.7441288,"Carrer de la Mar Jònica, 9, Platja de Palma, 07610 Palma, Illes Balears, Spain"
818,BH Mallorca Apartments,3.0,39.5059007,2.5295692,"Av de las Palmeras, 2, 07181 Magaluf, Illes Balears, Spain"
819,Globales Simar,3.0,39.9202638,3.0559764,"Carrer del Temporal, s/n, 07469 Cala Sant Vicenç, Illes Balears, Spain"
820,Can Alomar Luxury Boutique,5.0,39.56991110000001,2.6461194,"Carrer de Sant Feliu, 1, Centre, 07012 Palma, Illes Balears, Spain"
821,allsun App.-Hotel Orquidea Playa,5.0,39.8295135,3.1177261,"Carrer de les Canyes, 5, 07410 Port d'Alcúdia, Illes Balears, Spain"
822,Born,2.0,39.6952629,3.0175712,"Majorca, Balearic Islands, Spain"
823,S'Hort de son Caulelles,4.0,39.6213194,2.7599754,"Camí des Mirador, s/n, 07141 Marratxi, Islas Baleares, Illes Balears, Spain"
824,Fincahotel Binibona Parc Natural,4.0,39.7838587,2.9203313,"Carrer de Binibona, 07314 Caimari, Illes Balears, Spain"
825,Albellons Parc Natural,4.0,39.7924432,2.9136881,"Finca Albellons, S-N, 07314 Caimari, Illes Balears, Spain"
826,Iberostar Ciudad Blanca Alcudia Apartamentos,4.0,39.832508,3.117615,"Carretera d'Artà, 43, 07400 Alcúdia, Illes Balears, Spain"
827,Finca Son Mercadal,3.0,39.4781413,3.0410213,"Camí de son Pau, s/n, 07260 Porreras, Illes Balears, Spain"
828,Ca's Papa Sweet Hotel Valldemossa,4.0,39.7094488,2.622947,"Carrer de Jovellanos, 8, 07170 Valldemossa, Illes Balears, Spain"
829,Duvabitat Apartments,3.0,39.9037275,3.0676451,"Carrer Cap Roig, 5, 07470 Port de Pollença, Illes Balears, Spain"
830,Stil Bonsai,3.0,39.7598264,3.168344400000001,"Carrer Isaac Peral, 112, 07458 Can Picafort, Illes Balears, Spain"
831,Segles,5.0,39.4297035,3.0200029,"C/ de Santanyí, 4, 07630 Campos, Illes Balears, Spain"
832,Castell Dels Hams,4.0,39.5503676,3.3156905,"Carr. Manacor-Porto Cristo, km 10, 07680, Illes Balears, Spain"
833,Hotel Honucai,4.0,39.3165893,2.9968169,"Carrer Bonança, 1, 07638 Colònia de Sant Jordi, Illes Balears, Spain"
834,Ona Village Cala D'Or,3.0,39.3656266,3.2243506,"Ona Village Cala D’Or, Calle Voltor 5, Urb. Es Sementer, Cala Egos, 07660 Santanyí, Illes Balears, Spain"
835,Posada Terra Santa,4.0,39.56989,2.653395,"Carrer de la Posada de Terra Santa, 5, Centre, 07001 Palma, Illes Balears, Spain"
836,Santuari de Cura,3.0,39.5271203,2.9262001,"Puig de Randa, S/N, 07629 Randa, Illes Balears, Spain"
837,Zafiro Palace Alcudia,5.0,39.8446156,3.1344734,"Carrer del Camí Reial Al Moll, 2, 07400 Alcúdia, Illes Balears, Spain"
838,Iberostar Cala Millor,5.0,39.5868421,3.3854014,"Carrer Castell, 7, 07560 Cala Millor, Illes Balears, Spain"
839,Apartamentos Venecia,5.0,39.8283693,3.117348,"Carrer dels Garballons, 2, 07410 Alcúdia, Illes Balears, Spain"
840,Hotel Triton Beach,4.0,39.7100521,3.456617,"07590 Cala Ratjada, Balearic Islands, Spain"
841,LoftOtel Canet,4.0,39.656778,2.6287214,"Carretera de Esporles, Km. 1, 07190, Illes Balears, Spain"
842,R2 Bahia Cala Ratjada Design Hotel,4.0,39.7100398,3.4566911,"07590 Cala Ratjada, Balearic Islands, Spain"
843,Sant Francesc Hotel Singular,5.0,39.5690094,2.6526267,"Plaça de Sant Francesc, 5, Centre, 07001 Palma, Illes Balears, Spain"
844,The Hostal,1.0,39.6952629,3.0175712,"Majorca, Balearic Islands, Spain"
845,Hotel Verónica & Apartaments Midas,3.0,39.5995158,3.3839567,"Carrer Primavera, 2, 07560 Cala Millor, Illes Balears, Spain"
846,Apartamentos Balear Beach,1.0,39.5120878,2.5389148,"Carrer Cala Blanca, 7, 07181 Torrenova, Illes Balears, Spain"
847,Hotel Mix Colombo,3.0,39.5640351,3.3735693,"C. del Lluç, S/N, 07687 S'Illot-Cala Morlanda, Illes Balears, Spain"
848,Vintage Hotel Bella Colina est. 1953,3.0,39.5378657,2.4456687,"Carrer de la Talaia, 4, 07160 Peguera, Illes Balears, Spain"
849,Es Revellar Art Resort,5.0,39.4248864,2.9757011,"Camí des Revellar Km 3.7 Pol 4 Parc 74, 07630 Campos, Illes Balears, Spain"
850,Isla de Cabrera Aparthotel & Hotel,4.0,39.3194963,2.9980455,"C, Av. Marquès del Palmer, 07638 Colònia de Sant Jordi, Illes Balears, Spain"
851,Hoposa Cultural Boutique,2.0,39.9077005,3.0822958,"Plaça Miguel Capllonch, 13, 07470 Port de Pollença, Illes Balears, Spain"
852,Son Perdiu,3.0,39.385603,3.2444368,"Son Perdiu, 07669 Felanitx, Illes Balears, Spain"
853,Mar Hotels Paguera & Spa,4.0,39.53739600000001,2.4575657,"Carrer de les Gavines, 19, 07160 Peguera, Illes Balears, Spain"
854,COOEE Cala Ratjada,4.0,39.7100398,3.4566911,"07590 Cala Ratjada, Balearic Islands, Spain"
855,Iberostar Selection Llaut Palma - Adults Only,5.0,39.5136084,2.7514125,"Av. d'Amèrica, 2, Platja de Palma, 07600 Palma, Illes Balears, Spain"
856,Art Hotel Palma,4.0,39.5723972,2.6511296,"Costa d'En Sintes, 6, Distrito Centro, 07003 Palma, Illes Balears, Spain"
857,Cap Vermell Grand Hotel,5.0,39.6689517,3.4395414,"Urb. Atalaya de Canyamel, Vial A, 12, 07589 Canyamel, Illes Balears, Spain"
858,Can Feliu Ecoagroturismo,4.0,39.6952629,3.0175712,"Majorca, Balearic Islands, Spain"
859,Hotel Club Cala Murada,3.0,39.4488079,3.2682148,"07688 Cala Murada, Illes Balears, Spain"
860,AluaSun Cala Antena,3.0,39.4654846,3.2799376,"Carrer de Cala Antena, s/n, 07689 Cales de Mallorca, Illes Balears, Spain"
861,Llaüt Boutique Hotel,4.0,39.764443,3.160101,"Carrer Residència, 1, 07458 Can Picafort, Illes Balears, Spain"
862,Marriott's Club Son Antem,5.0,39.47381,2.82988,"Tourism Registry, Ma-19, Salida 20, 07620, Illes Balears, Spain"
863,Sol Barbados,4.0,39.5026922,2.5320377,"Av. Notari Alemany, 7, 07181 Calvià, Illes Balears, Spain"
864,Playamar Apartments,2.0,39.5681964,3.3718784,"Rosa De Los Vientos, 7, 07687 S'Illot, Illes Balears, Spain"
865,PlayaMar Hotel,2.0,39.5681964,3.3718784,"Rosa De Los Vientos, 7, 07687 S'Illot, Illes Balears, Spain"
866,Hotel Garbada & Complex,2.0,39.5274309,2.5404931,"Carrer de Roses Bermejo, 26, 07181 Palmanova, Illes Balears, Spain"
867,Seasun Far,3.0,39.530152,2.7320353,"Carrer de l'Albatros, 11, Platja de Palma, 07610 Palma, Illes Balears, Spain"
868,Canyamel Park Hotel & Spa,4.0,39.6575514,3.4392849,"Via Melesigeni, s/n, 07589 Canyamel, Illes Balears, Spain"
869,Illa d'Or Hotel & Illa d'Or Club,4.0,39.910228,3.0947262,"Calle Colón, 265, 07470 Pollensa, Illes Balears, Spain"
870,MLL Palma Bay Club Resort,3.0,39.5064267,2.755708400000001,"Carrer d'Amílcar, Platja de Palma, 07600 Palma, Illes Balears, Spain"
871,Meliá Calviá Beach,4.0,39.50338500000001,2.533168,"Carrer Violetes, 1, 07181 Calvià, Illes Balears, Spain"
872,Nakar Hotel,4.0,39.5722064,2.6433172,"Av. de Jaume III, 21, Centre, 07012 Palma, Illes Balears, Spain"
873,Zafiro Palace Palmanova,5.0,39.5184595,2.5314183,"Av. de Cas Saboners, 24, 07181 Calvià, Illes Balears, Spain"
874,Hipotels Gran Playa De Palma,4.0,39.5149711,2.7489274,"Edificio Gran Playa, Prol. Calle de las Cañas, Playa de Palma, 07600 Playa de Palma, Illes Balears, Spain"
875,Hipotels Playa de Palma Palace Hotel & Spa,5.0,39.5148153,2.7500193,"Avinguda de Fra Joan Llabrés, 20, Platja de Palma, 07600 Palma, Illes Balears, Spain"
876,Caleia Talayot & Spa,5.0,39.605,3.3880556,"Carrer de son Sard, 2, 07560 Cala Millor, Illes Balears, Spain"
877,AluaSoul Carolina,4.0,39.6811971,3.4509889,"Avenida Cala Provençals, 11, 07589 Cala Rajada, Illes Balears, Spain"
878,Hotel Creta Paguera,3.0,39.5377363,2.4487261,"Carrer Eucaliptus, 2, 07160 Peguera, Illes Balears, Spain"
879,Pleta De Mar Luxury Hotel by Nature,5.0,39.6497312,3.4340579,"Via de les Cales, 23, 07589 Capdepera, Illes Balears, Spain"
880,Kyrat Amàrac Suites,4.0,39.6011218,3.3834379,"Carrer de la Vinya del Mar, 4, 07560 Son Servera, Illes Balears, Spain"
881,Yourhouse Alcudia,2.0,39.8315366,3.1109018,"Av. Pere Mas i Reus, 20, 07400 Port d'Alcúdia, Illes Balears, Spain"
882,Yourhouse Acapulco Apartamentos,1.0,39.7675339,3.1479078,"Av. Josep Trias, 22, 07458 Can Picafort, Illes Balears, Spain"
883,Es Corte Vell Inland Hotel,4.0,39.6935789,2.7022394,"Carrer de Santa Catalina Thomàs, 67, 07110 Bunyola, Illes Balears, Spain"
884,Grupotel Los Principes & Spa  Hotel,4.0,39.8146353,3.1157285,"Carrer Galió, 31, 07458 Muro, Illes Balears, Spain"
885,Agroturismo Ca'n Gaia,3.0,39.424319,3.229794,"Sexta Vuelta, 170, 07669 Portocolom, Illes Balears, Spain"
886,Boutique Hotel Sant Jaume,5.0,39.8522515,3.1214773,"Carrer de Sant Jaume, 6, 07400 Alcúdia, Illes Balears, Spain"
887,BO Hotel,4.0,39.568675,2.6448472,"Carrer de Jaume Ferrer, 2, Centre, 07012 Palma, Illes Balears, Spain"
888,Brick Hotel,3.0,39.6952629,3.0175712,"Majorca, Balearic Islands, Spain"
889,Meliá Palma Bay,4.0,39.563302,2.665706,"Carrer de Felicià Fuster, 4, Llevant, 07006 Palma, Illes Balears, Spain"
890,Hotel Turixant,4.0,39.7510872,2.8717733,"Carrer Bartomeu Reus, 21, 07312 Mancor de la Vall, Illes Balears, Spain"
891,Hotel Es Princep,5.0,39.5656525,2.6552605,"Carrer de Bala Roja, 1, Centre, 07001 Palma, Illes Balears, Spain"
892,Hotel El Guía,2.0,39.7651116,2.7154656,"Carrer de Castanyer, 2, 07100 Sóller, Illes Balears, Spain"
893,Mirabo de Valldemossa,4.0,39.7038989,2.6302306,"Finca Mirabó. Ctra. km 16, 07170 Valldemosa, Illes Balears, Spain"
894,Hotel Sa Vall Valldemossa,3.0,39.711068,2.6271084,"Camí de Son Escanyelles, 19, 07170 Valldemossa, Illes Balears, Spain"
895,Agroturismo Ses Vistes,5.0,39.535018,3.0060387,"Polígon 1, Camí de Banyeres, parcela 143, 07260 Porreres, Illes Balears, Spain"
896,Embat Hostel,2.0,39.5681801,2.9824,"Carrer Rector Escarrer, 4, 07230 Montuïri, Illes Balears, Spain"
897,Ca'n Abril,4.0,39.7654342,2.7172595,"Carrer de Pastor, 26, 07100 Sóller, Illes Balears, Spain"
898,Hostal Bona Vista,5.0,39.5691703,3.3734589,"Carrer Llevant, 8, 07687 S'Illot, Illes Balears, Spain"
899,Metropolitan Playa JUKA Aparthotel,4.0,39.5229171,2.7464825,"Carrer de la Mar d'Aral, 6, Platja de Palma, 07610 Palma, Illes Balears, Spain"
900,Can Ribera by Zafiro,4.0,39.737214,3.059253,"Carrer Comtat, 1, 07440 Muro, Illes Balears, Spain"
901,INNSiDE Calviá Beach,4.0,39.506516,2.532558,"Avinguda de l'Olivera, 4, 07181 Calvià, Illes Balears, Spain"
902,Sa Torre,5.0,39.4414029,2.7545608,"07609 Sa Torre, Illes Balears, Spain"
903,whala!isabela,3.0,39.5726007,2.6427834,"Av. de Jaume III, 26, Centre, 07012 Palma, Illes Balears, Spain"
904,Iberostar Grand Portals Nous,5.0,39.5341014,2.5758967,"Carrer Falconer, 19, 07181 Portals Nous, Illes Balears, Spain"
905,Miramar,4.0,39.73914449999999,2.6183018,"07170 Miramar, Illes Balears, Spain"
906,Protur Palmeras Playa Hotel,4.0,39.5704256,3.3731303,"s/n Carrer, Avinguda de les Savines, 07560 Sa Coma, Illes Balears, Spain"
907,Sauló Beach Hotel,2.0,39.6952629,3.0175712,"Majorca, Balearic Islands, Spain"
908,Ses Fotges,3.0,39.8088369,3.1166518,"Av. de s'Albufera, 14, 07458 Platja de Muro, Illes Balears, Spain"
909,Ses Roquetes,2.0,39.3041176,3.0202296,"Platja de Ses Roquetes, Illes Balears, Spain"
910,Hipotels Cala Bona Club,4.0,39.6170325,3.391134,"Carretera Cala Bona, 30, 07559 Costa dels Pins, Illes Balears, Spain"
911,Aparthotel Marina Drach,2.0,39.538931,3.3300417,"Carrer del Curricà, 16, 07680 Porto Cristo, Illes Balears, Spain"
912,Alqueria Blanca,4.0,39.3876139,3.1653968,"07691 S'Alqueria Blanca, Illes Balears, Spain"
913,TUI BLUE Alcudia Pins,4.0,39.7895253,3.1259695,"Carrer Canyes, s/n, 07458 Playa de Muro, Illes Balears, Spain"
914,Stil Mar y Paz,2.0,39.7631258,3.1629759,"Carrer Isabel Garau, 2, 07458 Can Picafort, Illes Balears, Spain"
915,Hostal Diana,1.0,39.8417065,3.1354376,"Carrer de Teodor Canet, 25, 07400 Alcúdia, Illes Balears, Spain"
916,Mon Boutique Hotel,4.0,39.87656,3.0162,"Carrer d'Antoni Maura, 38, 07460 Pollença, Illes Balears, Spain"
917,Es Quatre Cantons,4.0,39.6628792,2.8591999,"Cami Dels Ollers, 1, 07350 Binissalem, Illes Balears, Spain"
918,Hipotels Coma Gran,4.0,39.5769996,3.375146,"Carrer Card, 2, 07560 Sa Coma, Illes Balears, Spain"
919,Son Galceran,4.0,39.662271,2.5864599,"Pont de Son Galcerán, 5, 07190, Illes Balears, Spain"
920,Torre Playa,3.0,39.9028486,3.0797705,"Passeig Saralegui, 136, 07470 Port de Pollença, Illes Balears, Spain"
921,Apartamentos Don Miguel & Hotel Panorama,2.0,39.8975928,3.0759607,"Carrer del Corb Marí, 4, 07470 Port de Pollença, Illes Balears, Spain"
922,Hotel Fonda Llabres,2.0,39.8532748,3.1222057,"Plaça de la Constitució, 6, 07400 Alcúdia, Illes Balears, Spain"
923,Hostal Apuntadores,2.0,39.56899019999999,2.645686,"Carrer dels Apuntadors, 8, Centre, 07012 Palma, Illes Balears, Spain"
924,Levante,4.0,39.6464082,3.2986106,"Llevant, Balearic Islands, Spain"
925,Vista Park Hotel,3.0,39.7603875,3.1661234,"Avinguda del Romaní, 10, 07458 Can Picafort, Illes Balears, Spain"
926,The Lis,2.0,39.6952629,3.0175712,"Majorca, Balearic Islands, Spain"
927,THB Gran Bahía Hotel,4.0,39.76681930000001,3.1541915,"Carrer Almirall Cervera, 1, 07458 Can Picafort, Illes Balears, Spain"
928,Forn Nou,3.0,39.6943665,3.3517196,"Carrer del Centre, 7, 07570 Artà, Illes Balears, Spain"
929,HSM Solivera,4.0,39.54,2.4472222,"Carrer Eucaliptus, 16, 07160 Peguera, Illes Balears, Spain"
930,Flor Los Almendros,5.0,39.5366398,2.4476353,"Bulevar de Peguera, 36, 07160 Peguera, Illes Balears, Spain"
931,Hotel Son Ametler,4.0,39.6044308,2.7267658,"07141 Son Ametller, Illes Balears, Spain"
932,Fleming Hostel,2.0,39.5805606,2.655141,"C/ de l'Arxiduc Lluís Salvador, 46, Nord, 07004 Palma, Illes Balears, Spain"
933,EIX Lagotel Apartamentos,4.0,39.811418,3.1064995,"Carrer Circuit del Llac, sn, 07458 Playa de Muro, Illes Balears, Spain"
934,Apartamentos Alborada,1.0,39.60366,3.3864908,"Paseo Maritimo de Cala millor 10, 07560 Cala Bona, Illes Balears, Spain"
935,Rafa Nadal Sport Residence,5.0,39.6952629,3.0175712,"Majorca, Balearic Islands, Spain"
936,Hotel Casablanca,3.0,39.5133629,2.4825856,"Carrer Gran Via Rei Sanxo, 6, 07180 Santa Ponça, Illes Balears, Spain"
937,Agroturisme Es Picot,3.0,39.4907277,3.232084,"Cami Sa Mola, km 3,6, Bustia Rural 88, 07500 Manacor, Illes Balears, Spain"
938,Hotel The Sky,4.0,39.7126133,3.4585985,"Carrer Bustamante, 40, 07590 Cala Rajada, Illes Balears, Spain"
939,Singular Hostel By Eurotels,2.0,39.558179,2.6243262,"Avinguda de Joan Miró, 126, Ponent, 07015 Palma, Illes Balears, Spain"
940,Hotel Gloria De Sant Jaume,5.0,39.5733768,2.6480128,"Carrer de Sant Jaume, 18, Centre, 07012 Palma, Illes Balears, Spain"
941,Senator Cala Millor,4.0,39.6019333,3.3851039,"Carrer de Binicanella, 3, 07560 Cala Millor, Illes Balears, Spain"
942,New Can Furios,4.0,39.7837038,2.9201193,"Diseminado Binibona-cl. Esglesia, 1A, Diseminado Binibona-cl. Esglesia, 1A, 07314 Binibona, Illes Balears, Spain"
943,Palma Beach Hotel & Apt,2.0,39.5726541,2.6568551,"Palma, Balearic Islands, Spain"
944,Cases de Son Barbassa,4.0,39.722721,3.4191133,"Ctra. Cala Mesquida - Camí de Son Barbassa, s/n, 07589 Capdepera, Illes Balears, Spain"
945,EIX Lagotel Hotel,4.0,39.811418,3.1064995,"Carrer Circuit del Llac, sn, 07458 Playa de Muro, Illes Balears, Spain"
946,Santuari de Lluc,1.0,39.8225088,2.8843231,"Plaça dels Pelegrins, 1, 07315 Lluc, Illes Balears, Spain"
947,azuLine Hotel Palmanova Garden,2.0,39.5237081,2.5363379,"Carrer Costa i Llobera, 15, 07181 Palma, Illes Balears, Spain"
948,Son Caliu Apartamentos,1.0,39.5263587,2.5466573,"Av. son Caliu, 10, 12, 07181 Palmanova, Illes Balears, Spain"
949,S'Estelrica Finca Hotel,4.0,39.6708984,3.3444902,"Camí de s'Estelrica s/n, 07570, Camí de Sestelrica, 07570, Illes Balears, Spain"
950,Summum Prime Boutique Hotel,5.0,39.5733364,2.6459741,"C/ de la Concepció, 26, Centre, 07012 Palma, Illes Balears, Spain"
951,ICON Rosetó,5.0,39.572076,2.6494958,"Carrer de Can Campaner, 6, Centre, 07003 Palma, Illes Balears, Spain"
952,Hotel Morlans & Morlans Garden & Suites,3.0,39.5372298,2.4562708,"Carrer de les Gavines, 6, 07160 Peguera, Illes Balears, Spain"
953,Inturotel Cala Azul Park & Esmeralda Park,3.0,39.377642,3.237479,"Carrer Caló des Corral, s/n, 07660 Cala D'or, Illes Balears, Spain"
954,Can Bordoy Gran House & Garden,5.0,39.5696597,2.6444226,"Carrer del Forn de la Glòria, 14, Centre, 07012 Palma, Illes Balears, Spain"
955,Protur Naisa Palma,4.0,39.5743738,2.6421166,"C/ de Simó Ballester, 6, 07011 Palma, Illes Balears, Spain"
956,Hotel Creu de Tau Art & Spa,5.0,39.701197,3.4317276,"C/ Dones de la Llata, 7, 07580 Capdepera, Illes Balears, Spain"
957,La Santamaría Apartamentos,3.0,39.59660299999999,3.3797942,"Av. del Bon Temps, 31, 07560 Sant Llorenç des Cardassar, Illes Balears, Spain"
958,Yartan Boutique Hotel,4.0,39.6937314,3.351191,"Carrer Trespolet, 8, 07570 Artà, Illes Balears, Spain"
959,Petit Hotel Sant Miquel,4.0,39.4008121,3.2039179,"Carrer Isaac Albéniz, 4, 07669 Calonge, Illes Balears, Spain"
960,Hotel The Place,4.0,39.6952629,3.0175712,"Majorca, Balearic Islands, Spain"
961,Sol i Vida,4.0,39.5360879,3.3326679,"Avinguda d'en Joan Servera Camps, 11, 07680 Porto Cristo, Illes Balears, Spain"
962,Eques Petit Resort,2.0,39.37266049999999,3.2264226,"Av. de Calonge, 9, 07660 Santanyí, Illes Balears, Spain"
963,Protur Bonamar,4.0,39.606793,3.3880689,"Carrer na Llambies, 07560 Cala Millor, Illes Balears, Spain"
964,Finca Serena,5.0,39.58717619999999,2.9462416,"Ma-3200 km, Ma-3200, km, 3, 3, 07230 Montuiri, Illes Balears, Spain"
965,Fil Suites,5.0,39.5709323,2.6548661,"Carrer de la Ferreria, 14, Centre, 07002 Palma, Illes Balears, Spain"
966,Forum Boutique Hotel & Spa,4.0,39.8533186,3.122196,"Carrer de Cristòfol Colom, 2-4, 07400 Alcúdia, Illes Balears, Spain"
967,Mar Salada Apartments,5.0,39.8338535,3.12007,"Carrer de Minerva, 31, 07400 Port d'Alcúdia, Illes Balears, Spain"
968,Som Ars Magna Bleisure Hotel,4.0,39.578989,2.6507196,"C. de Blanquerna, 12, Nord, 07003 Palma, Illes Balears, Spain"
969,Cala Morlanda Estudios,3.0,39.5630809,3.3733748,"Carrer del Pagell, 26, 07687 S'Illot-Cala Morlanda, Illes Balears, Spain"
970,YourHouse Port,1.0,39.8315366,3.1109018,"Av. Pere Mas i Reus, 20, 07400 Port d'Alcúdia, Illes Balears, Spain"
971,Hotel El Llorenc Parc De La Mar,5.0,39.5657104,2.6530103,"Plaça de Llorenç Villalonga, 4, Centre, 07001 Palma, Illes Balears, Spain"
972,Ca Sa Tieta,3.0,39.7047258,2.7906052,"Carrer de Can Barbut, 2, 07340 Alaró, Illes Balears, Spain"
973,Hotel Soller Plaza,4.0,39.766177,2.714492,"Carrer de Vicari Pastor, 4, 07100 Sóller, Illes Balears, Spain"
974,Zafiro Palace Andratx,5.0,39.5395093,2.4262561,"Carrer Cromlec, 3, 07160 Camp de Mar, Illes Balears, Spain"
975,Seasun Aniram,4.0,39.530152,2.7320353,"Carrer de l'Albatros, 11, Platja de Palma, 07610 Palma, Illes Balears, Spain"
976,INNER Kompas Studios,3.0,39.5195699,2.5355459,"Passeig Mar, 54, 07181 Palmanova, Illes Balears, Spain"
977,THB Gran Bahía Apartments,3.0,39.76681930000001,3.1541915,"Carrer Almirall Cervera, 1, 07458 Can Picafort, Illes Balears, Spain"
978,Terreno Studios,4.0,39.56160209999999,2.6251302,"El Terreno, Ponent District, Palma, Balearic Islands, Spain"
979,Aubamar Suites & Spa,5.0,39.5169632,2.7487851,"Calle Misión de San Diego, 17, Platja de Palma, 07600 Palma, Illes Balears, Spain"
980,Hotel Rocamarina,4.0,39.3657943,3.2264881,"Av. d'es Fortí, 14, 07660 Cala D'or, Illes Balears, Spain"
981,Mariner Club Apartments,3.0,39.837086,3.1115935,"Carrer Atenes, 1, 07400 Platja D'Alcudia, Illes Balears, Spain"
982,Grupotel Playa Camp de Mar,4.0,39.5384771,2.4223521,"Mallorca Avda. Gabriel Covas Alemany 1, 07160 Camp de Mar, Illes Balears, Spain"
983,Hotel Nou Baleares,4.0,39.57329319999999,2.6614408,"Plaça Francesc García i Orell, 8, Llevant, 07006 Palma, Illes Balears, Spain"
984,Lluna Aqua Hotel,4.0,39.7671021,2.7160848,"Carrer de sa Lluna, 23, 07100 Sóller, Illes Balears, Spain"
985,Hotel Ynaira,5.0,39.6495922,3.1112235,"Carrer Major, 36, 07529 Ariany, Illes Balears, Spain"
986,Hostal Beijuan,2.0,39.5697298,3.3722117,"Carrer Llevant, 22, 07687 S'Illot, Illes Balears, Spain"
987,Hostal Residencia San Francisco,3.0,39.5642156,2.6238584,"Carrer de Santa Rita, 17, Ponent, 07014 Palma, Illes Balears, Spain"
988,Palacio Can Marqués,5.0,39.5692909,2.6444043,"Carrer dels Apuntadors, 15, Centre, 07012 Palma, Illes Balears, Spain"
989,Senda Caimari Hotel,1.0,39.7714463,2.9029406,"Carrer de ses Tavernes, 10, 07314 Caimari, Illes Balears, Spain"
990,Ses Cases Noves Finca,3.0,39.6114025,2.706766,"Ses Cases Noves, 07141 Es Pont d'Inca, Illes Balears, Spain"
991,Beach Inn,1.0,39.6952629,3.0175712,"Majorca, Balearic Islands, Spain"
992,New Art Hostel Albergue Juvenil,1.0,39.5679182,2.6636157,"Carrer de Jeroni Pou, 70, Llevant, 07006 Palma, Illes Balears, Spain"
993,Casa Galileo,1.0,39.6576647,2.9503412,"Plaça de la Mare de Déu, 12, 07144 Costitx, Illes Balears, Spain"
994,Edificio PrÍncipe,1.0,39.5397829,2.5909231,"Passeig Illetes, 37, 07181 ses Illetes, Illes Balears, Spain"
995,Sofia Alcúdia Beach,4.0,39.8355164,3.1209743,"Carrer de Minerva, 19, 07400 Port d'Alcúdia, Illes Balears, Spain"
996,Samaritana Suites,4.0,39.5702208,2.6531946,"Carrer del Pes de la Farina, 2, Centre, 07001 Palma, Illes Balears, Spain"
997,The Boc Suites,4.0,39.580338,2.6557618,"Carrer de la Reina Maria Cristina, 51, Nord, 07004 Palma, Illes Balears, Spain"
998,Hotel Sabina & Suites,4.0,39.6011111,3.3844444,"Carrer de na Penyal, 1, 07560 Cala Millor, Illes Balears, Spain"
